台帳番号,名称,所在地,棟名,指定場所,画像,画像2,AED情報,分類__,FIXEDID,X,Y,承認状態,登録日時,更新日時,公開範囲
0,大分市公設地方卸売市場,豊海４丁目１番１号　豊海３丁目２番１号,青果棟　水産棟,２階駐車場,,,0,津波避難ビル,200451,28582.42894,57001.18966,承認済み,2017/5/16 9:30,,庁外公開
0,大分市公設地方卸売市場,豊海４丁目１番１号　豊海３丁目２番１号,青果棟　水産棟,２階駐車場,,,0,津波避難ビル,200452,28502.54414,56869.67307,承認済み,2017/5/16 9:30,,庁外公開
1,ＫＡＺＵビル,三川下２－７－２８,,３～６階の階段・踊り場・通路,,,0,津波避難ビル,200235,27927.03904,62362.16933,承認済み,2017/5/16 9:30,,庁外公開
2,大分市役所,荷揚町２－３１,本庁舎・第２庁舎,第２庁舎６階大研修室,,,0,津波避難ビル,200236,26760.67909,56710.37844,承認済み,2017/5/16 9:30,,庁外公開
3,大分県総合社会福祉会館,大津町２丁目１－４１,,３～４階の階段・踊り場・ベランダ,,,0,津波避難ビル,200237,27700.4595,58283.23696,承認済み,2017/5/16 9:30,,庁外公開
4,さくらビル,原新町６－１５,,３～６階の外部階段・踊り場,,,0,津波避難ビル,200238,27979.58846,60582.17975,承認済み,2017/5/16 9:30,,庁外公開
5,さくらビル２,松原町３－４－６,,３～６階の外部階段・踊り場,,,0,津波避難ビル,200239,28050.74671,61025.73134,承認済み,2017/5/16 9:30,,庁外公開
6,英光ビル,三川新町２－３－３９,,３～４階の階段・踊り場,,,0,津波避難ビル,200240,28227.29608,62543.21722,承認済み,2017/5/16 9:30,,庁外公開
7,パルジュ鶴崎,三佐４－５－２８,,３～４階の階段・踊り場・廊下,,,0,津波避難ビル,200241,27966.30593,63558.78874,承認済み,2017/5/16 9:30,,庁外公開
8,コンセールＮＫ,三佐４－４－７,,３～８階の階段・踊り場・廊下,,,0,津波避難ビル,200242,27952.85986,63620.34622,承認済み,2017/5/16 9:30,,庁外公開
9,市営日吉原住宅,浜中１２番２５号,,４～９階の階段・踊り場・廊下,,,0,津波避難ビル,200243,26816.13344,70130.01849,承認済み,2017/5/16 9:30,,庁外公開
10,ロッヂ宮法師Ｅ棟,大字里２１７９,,３～６階の階段・踊り場・通路,,,0,津波避難ビル,200244,25579.34017,68795.17381,承認済み,2017/5/16 9:30,,庁外公開
11,ドゥペール・ワコー勢家,大字勢家１０９６番地の１,,３～１２階の階段・踊り場・ＥＶホール,,,0,津波避難ビル,200245,27577.16176,56289.727,承認済み,2017/5/16 9:30,,庁外公開
12,大分県トラック会館,向原西１－１－２７,,３～５階の外部階段・踊り場,,,0,津波避難ビル,200246,28126.7347,61118.94052,承認済み,2017/5/16 9:30,,庁外公開
13,特別養護老人ホーム百華苑,大字東上野１８００,,１～４階の空きスペース,,,0,津波避難ビル,200247,25729.46225,71810.815,承認済み,2017/5/16 9:30,,庁外公開
14,市営馬場住宅,大字馬場６６９番地,Ｂ－１、Ｂ－２、Ｂ－３、Ｂ－４,３階以上の階段・踊り場,,,0,津波避難ビル,200248,26713.66017,73623.50143,承認済み,2017/5/16 9:30,,庁外公開
14,市営馬場住宅,大字馬場６６９番地,Ｂ－１、Ｂ－２、Ｂ－３、Ｂ－４,３階以上の階段・踊り場,,,0,津波避難ビル,200254,26724.28306,73576.61982,承認済み,2017/5/16 9:30,,庁外公開
14,市営馬場住宅,大字馬場６６９番地,B-1、B-2、B-3、B-4,３階以上の階段・踊り場,,,0,津波避難ビル,200255,26750.53839,73589.12275,承認済み,2017/5/16 9:30,,庁外公開
14,市営馬場住宅,大字馬場６６９番地,Ｂ－１、Ｂ－２、Ｂ－３、Ｂ－４,３階以上の階段・踊り場,,,0,津波避難ビル,200256,26738.6639,73643.49707,承認済み,2017/5/16 9:30,,庁外公開
15,さわやか　さかのいち館,坂ノ市中央三丁目１６番２２号,1,３～４階の階段・踊り場,,,0,津波避難ビル,200249,26111.81648,70037.99689,承認済み,2017/5/16 9:30,,庁外公開
16,市営裏川住宅,大字下郡１７２１番地の２７・３０,１Ａ１、１Ａ２、１Ａ３、１Ａ４、２Ａ１,３～５階の階段・踊り場,,,0,津波避難ビル,200250,26370.70165,58940.42088,承認済み,2017/5/16 9:30,,庁外公開
16,市営裏川住宅,大字下郡１７２１番地の２７・３０,１Ａ１、１Ａ２、１Ａ３、１Ａ４、２Ａ１,３～５階の階段・踊り場,,,0,津波避難ビル,200257,26334.44213,58962.91389,承認済み,2017/5/16 9:30,,庁外公開
16,市営裏川住宅,大字下郡１７２１番地の２７・３０,１Ａ１、１Ａ２、１Ａ３、１Ａ４、２Ａ１,３～５階の階段・踊り場,,,0,津波避難ビル,200258,26445.6968,58998.54547,承認済み,2017/5/16 9:30,,庁外公開
16,市営裏川住宅,大字下郡１７２１番地の２７・３０,１Ａ１、１Ａ２、１Ａ３、１Ａ４、２Ａ１,３～５階の階段・踊り場,,,0,津波避難ビル,200259,26420.07566,59021.66333,承認済み,2017/5/16 9:30,,庁外公開
16,市営裏川住宅,大字下郡１７２１番地の２７・３０,１Ａ１、１Ａ２、１Ａ３、１Ａ４、２Ａ１,３～５階の階段・踊り場,,,0,津波避難ビル,200260,26376.94556,59024.79585,承認済み,2017/5/16 9:30,,庁外公開
17,イオン高城店,高城西町２８番１号,,３階屋上駐車場,,,0,津波避難ビル,200251,26981.09564,60815.6442,承認済み,2017/5/16 9:30,,庁外公開
18,豊国スカイマンション大分,原新町１８－２４,,３～１１階の階段・踊り場・通路,,,0,津波避難ビル,200261,27641.96275,60877.51598,承認済み,2017/5/16 9:30,,庁外公開
19,スターダスト花高松,花高松２丁目９－２８,,３～５階の階段・踊り場・通路,,,0,津波避難ビル,200262,28020.41453,61917.86852,承認済み,2017/5/16 9:30,,庁外公開
20,アーバングリーン泉,泉町１３－１０,,３～６階の階段・踊り場・通路,,,0,津波避難ビル,200263,27978.74138,57041.80253,承認済み,2017/5/16 9:30,,庁外公開
21,アーバングリーン豊町,豊町１丁目１－２０,,３～８階の階段・踊り場・通路,,,0,津波避難ビル,200264,27550.30999,57446.69269,承認済み,2017/5/16 9:30,,庁外公開
22,アーバンベルデ千代町,千代町３－２－８,,３～９階の階段・踊り場・通路,,,0,津波避難ビル,200265,27117.24418,56308.68617,承認済み,2017/5/16 9:30,,庁外公開
23,アーバングリーン長浜,長浜町１丁目６－３,,３～８階の階段・踊り場・通路,,,0,津波避難ビル,200266,26412.52232,57409.10162,承認済み,2017/5/16 9:30,,庁外公開
24,市営秋ノ江第２住宅,大字白木２９０番地,Ｓ５７、Ｓ５８、Ｓ６３,３～４階の階段・踊り場,,,0,津波避難ビル,200267,27062.19261,81241.01621,承認済み,2017/5/16 9:30,,庁外公開
24,市営秋ノ江第２住宅,大字白木２９０番地,Ｓ５７、Ｓ５８、Ｓ６３,３～４階の階段・踊り場,,,0,津波避難ビル,200268,27084.06855,81284.15061,承認済み,2017/5/16 9:30,,庁外公開
24,市営秋ノ江第２住宅,大字白木２９０番地,Ｓ５７、Ｓ５８、Ｓ６３,３～４階の階段・踊り場,,,0,津波避難ビル,200269,27104.69662,81305.39446,承認済み,2017/5/16 9:30,,庁外公開
25,市営古宮住宅,大字佐賀関２７６番地の１,Ｈ１、Ｈ８,３階の踊り場,,,0,津波避難ビル,200270,27672.74061,80394.29394,承認済み,2017/5/16 9:30,,庁外公開
25,市営古宮住宅,大字佐賀関２７６番地の１,Ｈ１、Ｈ８,３階の踊り場,,,0,津波避難ビル,200271,27645.23269,80401.79011,承認済み,2017/5/16 9:30,,庁外公開
26,市営幸崎駅前住宅,大字本神崎２８１番地の３,Ｈ１３,３～５階の階段・踊り場,,,0,津波避難ビル,200272,26383.20799,74129.65479,承認済み,2017/5/16 9:30,,庁外公開
27,フレクション大分松原,松原町３－２－５,,３～５階の階段・踊り場・通路,,,0,津波避難ビル,200273,27970.23469,60951.86425,承認済み,2017/5/16 9:30,,庁外公開
28,コスモコーポ,日岡２－１－７,,３～４階の階段・踊り場・通路,,,0,津波避難ビル,200274,27853.47143,61243.23247,承認済み,2017/5/16 9:30,,庁外公開
29,サンメゾン高城,高松１丁目７－８,,３～７階の階段・踊り場・通路,,,0,津波避難ビル,200275,27504.83858,60962.06873,承認済み,2017/5/16 9:30,,庁外公開
30,クオリティハイツ,花高松１丁目３番２０号,,３～４階の階段・踊り場,,,0,津波避難ビル,200276,27843.60255,61871.37213,承認済み,2017/5/16 9:30,,庁外公開
31,ソフィアライト,高松１丁目８－４,,３～５階の階段・踊り場,,,0,津波避難ビル,200277,27491.00181,61024.02706,承認済み,2017/5/16 9:30,,庁外公開
32,クレイン大手町,大手町３丁目３－３９,,３～８階の階段・踊り場・通路,,,0,津波避難ビル,200278,26492.70203,57244.14732,承認済み,2017/5/16 9:30,,庁外公開
33,佐藤ビル,向原東１－３－２０,,３～４階の階段・踊り場・通路,,,0,津波避難ビル,200279,28232.31169,61818.6305,承認済み,2017/5/16 9:30,,庁外公開
34,明日香会館,大字里４５１番地,,１～２階の待合室・葬祭室・廊下,,,0,津波避難ビル,200280,26427.05961,69074.40338,承認済み,2017/5/16 9:30,,庁外公開
35,Ｌｏｆｔｙ２＆１,坂ノ市中央１丁目３－３４,,３～１０階の階段・踊り場,,,0,津波避難ビル,200281,26359.48478,69775.97105,承認済み,2017/5/16 9:30,,庁外公開
36,カルフール錦町,錦町１丁目７－１８,,３階の踊り場・通路,,,0,津波避難ビル,200282,26193.19092,57777.29176,承認済み,2017/5/16 9:30,,庁外公開
37,高松中央ビル,高松１丁目２－１,,３～９階の階段・踊り場・通路,,,0,津波避難ビル,200283,27307.12816,61053.015,承認済み,2017/5/16 9:30,,庁外公開
38,高松ロイヤルハイツ,日吉町１８－２２,,３～６階の階段・踊り場・通路,,,0,津波避難ビル,200284,27365.93376,60917.31808,承認済み,2017/5/16 9:30,,庁外公開
39,鈴木Ⅱ,千代町１－２－３５,,３～１０階の階段・踊り場・通路,,,0,津波避難ビル,200285,27182.54275,56552.63166,承認済み,2017/5/16 9:30,,庁外公開
40,ベル三川,三川下１－２－７,,３～５階の階段・踊り場・通路,,,0,津波避難ビル,200286,27607.71189,62145.23703,承認済み,2017/5/16 9:30,,庁外公開
41,ネオス寺崎,寺崎町１－６－１６,,３階通路,,,0,津波避難ビル,200287,27464.1566,61888.21189,承認済み,2017/5/16 9:30,,庁外公開
42,プライムコート中島,中島東３－１－２５,,３階の踊り場・廊下,,,0,津波避難ビル,200288,27391.80681,57470.57946,承認済み,2017/5/16 9:30,,庁外公開
43,渡辺コーポ,三川上４－２－２８,,３～６階の階段・踊り場・通路,,,0,津波避難ビル,200289,27445.1171,62464.69455,承認済み,2017/5/16 9:30,,庁外公開
44,オーシャンＣｉｔｙ,寺崎町２－２－１,,３階部分の踊り場・廊下,,,0,津波避難ビル,200290,27337.68362,62094.12924,承認済み,2017/5/16 9:30,,庁外公開
45,オーシャンＣｉｔｙⅡ,寺崎町２－２－２,,３階部分の踊り場・廊下,,,0,津波避難ビル,200291,27351.57609,62109.20113,承認済み,2017/5/16 9:30,,庁外公開
46,メゾンセザンヌ,向原東２－４－２５,,３～８階の階段・踊り場・通路,,,0,津波避難ビル,200292,28323.00815,62013.22211,承認済み,2017/5/16 9:30,,庁外公開
47,大洋堂ビル,大字森町５９７番地５,,３～７階の階段・踊り場・廊下,,,0,津波避難ビル,200293,25091.09223,63456.91919,承認済み,2017/5/16 9:30,,庁外公開
48,コーポスズキ,勢家町１丁目４－３５,No.6　No.7,３～４階の階段・踊り場・廊下,,,0,津波避難ビル,200305,27153.02773,55893.90163,承認済み,2017/5/16 9:30,,庁外公開
48,コーポスズキ,勢家町１丁目４－３５,NO.6　No.7,３～４階の階段・踊り場・廊下,,,0,津波避難ビル,200306,27130.52795,55890.14525,承認済み,2017/5/16 9:30,,庁外公開
49,コーポ三川,三川下１－２－２０,,３～４階の階段・踊り場・廊下,,,0,津波避難ビル,200307,27606.61756,62190.52922,承認済み,2017/5/16 9:30,,庁外公開
50,原川水資源再生センター,向原沖３丁目１番３１号,汚泥処理棟,３階ホール・廊下・硝石灰ホッパー室及び屋上,,,0,津波避難ビル,200308,28469.76184,62107.27351,承認済み,2017/5/16 9:30,,庁外公開
51,市営下徳丸住宅,大字下徳丸１３８－１、１３８－９、１３８－４、１４８－１,Ａ、Ｂ、Ｃ、Ｄ,３階の踊り場,,,0,津波避難ビル,200309,23521.2111,64404.24963,承認済み,2017/5/16 9:30,,庁外公開
51,市営下徳丸住宅,大字下徳丸１３８－１、１３８－９、１３８－４、１４８－１,Ａ、Ｂ、Ｃ、Ｄ,３階の踊り場,,,0,津波避難ビル,200310,23549.33774,64409.87106,承認済み,2017/5/16 9:30,,庁外公開
51,市営下徳丸住宅,大字下徳丸１３８－１、１３８－９、１３８－４、１４８－１,Ａ、Ｂ、Ｃ、Ｄ,３階の踊り場,,,0,津波避難ビル,200311,23578.0869,64412.37485,承認済み,2017/5/16 9:30,,庁外公開
51,市営下徳丸住宅,大字下徳丸１３８－１、１３８－９、１３８－４、１４８－１,Ａ、Ｂ、Ｃ、Ｄ,３階の踊り場,,,0,津波避難ビル,200312,23566.21892,64460.49829,承認済み,2017/5/16 9:30,,庁外公開
52,市営寺畑住宅,大字鶴崎２１４５－１,１Ａ１,３～５階の階段・踊り場,,,0,津波避難ビル,200313,27190.70344,63671.63376,承認済み,2017/5/16 9:30,,庁外公開
53,市営寺司住宅,西鶴崎２－２－１４、６－２０、６－１４,１Ａ１、２Ａ１、２Ａ２,３階の踊り場,,,0,津波避難ビル,200314,27076.71047,63644.01514,承認済み,2017/5/16 9:30,,庁外公開
53,市営寺司住宅,西鶴崎２－２－１４、６－２０、６－１４,１Ａ１、２Ａ１、２Ａ２,３階の踊り場,,,0,津波避難ビル,200315,27046.04529,63650.32921,承認済み,2017/5/16 9:30,,庁外公開
53,市営寺司住宅,西鶴崎２－２－１４、６－２０、６－１４,１Ａ１、２Ａ１、２Ａ２,３階の踊り場,,,0,津波避難ビル,200316,27021.82263,63646.46228,承認済み,2017/5/16 9:30,,庁外公開
54,市営高田住宅,大字下徳丸８６番地の４,,３階の踊り場,,,0,津波避難ビル,200317,23334.55174,64340.18358,承認済み,2017/5/16 9:30,,庁外公開
55,第２清弥マンション,高城南町８番２号,,３～６階の階段・踊り場・廊下,,,0,津波避難ビル,200318,27077.34615,61224.10154,承認済み,2017/5/16 9:30,,庁外公開
56,第３清弥ビル,高城南町９番３３号,,３～４階の階段・踊り場・廊下,,,0,津波避難ビル,200319,26994.97869,61074.91907,承認済み,2017/5/16 9:30,,庁外公開
57,高山ビル,長浜町１丁目２－２,,３～５階の階段・踊り場・廊下,,,0,津波避難ビル,200320,26252.4284,57421.01746,承認済み,2017/5/16 9:30,,庁外公開
58,ＡＴヤマサキ,長浜町１丁目５－５,,３～５階の階段・踊り場・廊下,,,0,津波避難ビル,200321,26398.99987,57374.4958,承認済み,2017/5/16 9:30,,庁外公開
59,市営新川町住宅,新川町２丁目１０番５０号,２Ａ１,３～５階の階段・踊り場,,,0,津波避難ビル,200322,28072.07623,56814.64584,承認済み,2017/5/16 9:30,,庁外公開
60,市営東浜住宅,東浜２丁目２１－２、１８－１６、１３－１、１７－１２、１２－４、１９－６、１５－２Ａ３,１Ａ１、１Ａ２、２Ａ１、１Ａ３、２Ａ２、１Ａ４、２Ａ３,３～５階の階段・踊り場,,,0,津波避難ビル,200323,27709.35983,59207.66389,承認済み,2017/5/16 9:30,,庁外公開
60,市営東浜住宅,東浜２丁目２１－２、１８－１６、１３－１、１７－１２、１２－４、１９－６、１５－２Ａ３,１Ａ１、１Ａ２、２Ａ１、１Ａ３、２Ａ２、１Ａ４、２Ａ３,３～５階の階段・踊り場,,,0,津波避難ビル,200324,27682.48224,59208.28419,承認済み,2017/5/16 9:30,,庁外公開
60,市営東浜住宅,東浜２丁目２１－２、１８－１６、１３－１、１７－１２、１２－４、１９－６、１５－２Ａ３,１Ａ１、１Ａ２、２Ａ１、１Ａ３、２Ａ２、１Ａ４、２Ａ３,３～５階の階段・踊り場,,,0,津波避難ビル,200325,27626.23496,59224.53252,承認済み,2017/5/16 9:30,,庁外公開
60,市営東浜住宅,東浜２丁目２１－２、１８－１６、１３－１、１７－１２、１２－４、１９－６、１５－２Ａ３,１Ａ１、１Ａ２、２Ａ１、１Ａ３、２Ａ２、１Ａ４、２Ａ３,３～５階の階段・踊り場,,,0,津波避難ビル,200326,27593.72574,59234.53309,承認済み,2017/5/16 9:30,,庁外公開
60,市営東浜住宅,東浜２丁目２１－２、１８－１６、１３－１、１７－１２、１２－４、１９－６、１５－２Ａ３,１Ａ１、１Ａ２、２Ａ１、１Ａ３、２Ａ２、１Ａ４、２Ａ３,３～５階の階段・踊り場,,,0,津波避難ビル,200327,27561.85016,59233.90735,承認済み,2017/5/16 9:30,,庁外公開
60,市営東浜住宅,東浜２丁目２１－２、１８－１６、１３－１、１７－１２、１２－４、１９－６、１５－２Ａ３,１Ａ１、１Ａ２、２Ａ１、１Ａ３、２Ａ２、１Ａ４、２Ａ３,３～５階の階段・踊り場,,,0,津波避難ビル,200328,27615.61079,59166.41604,承認済み,2017/5/16 9:30,,庁外公開
60,市営東浜住宅,東浜２丁目２１－２、１８－１６、１３－１、１７－１２、１２－４、１９－６、１５－２Ａ３,１Ａ１、１Ａ２、２Ａ１、１Ａ３、２Ａ２、１Ａ４、２Ａ３,３～５階の階段・踊り場,,,0,津波避難ビル,200329,27568.10014,59173.28375,承認済み,2017/5/16 9:30,,庁外公開
61,市営萩原住宅,萩原４丁目１２－２１、１２－２４,１Ａ１、２Ａ１,３・４階の階段・踊り場,,,0,津波避難ビル,200330,27639.36385,60020.27771,承認済み,2017/5/16 9:30,,庁外公開
61,市営萩原住宅,萩原４丁目１２－２１、１２－２４,１Ａ１、２Ａ１,３・４階の階段・踊り場,,,0,津波避難ビル,200331,27611.86932,60023.4012,承認済み,2017/5/16 9:30,,庁外公開
62,市営岩田住宅,岩田町３丁目９番,,３・４階の階段・踊り場・通路,,,0,津波避難ビル,200332,26492.07185,58595.83071,承認済み,2017/5/16 9:30,,庁外公開
63,市営大空住宅,大津町２丁目３番、４番、５番,１Ａ１、１Ａ２、２Ａ１,３～５階の階段・踊り場,,,0,津波避難ビル,200334,27847.57925,58332.26988,承認済み,2017/5/16 9:30,,庁外公開
63,市営大空住宅,大津町２丁目３番、４番、５番,１Ａ１、１Ａ２、２Ａ１,３～５階の階段・踊り場,,,0,津波避難ビル,200335,27805.70719,58314.14654,承認済み,2017/5/16 9:30,,庁外公開
63,市営大空住宅,大津町２丁目３番、４番、５番,１Ａ１、１Ａ２、２Ａ１,３～５階の階段・踊り場,,,0,津波避難ビル,200336,27766.94846,58304.7724,承認済み,2017/5/16 9:30,,庁外公開
64,市営田ノ浦住宅,大字田ノ浦２組の２,,３～５階の階段・踊り場・通路,,,0,津波避難ビル,200337,28447.20836,50748.41751,承認済み,2017/5/16 9:30,,庁外公開
65,シーサイド大平,久原中央１丁目９番１８号,,３～９階の階段・通路,,,0,津波避難ビル,200338,26550.91973,70524.94024,承認済み,2017/5/16 9:30,,庁外公開
66,ビジネスホテルたちかわ,徳島３丁目１９番３号,,３階の階段・踊り場・廊下及び屋上,,,0,津波避難ビル,200339,27500.18119,64896.16997,承認済み,2017/5/16 9:30,,庁外公開
67,今津留住宅,岩田町２丁目１４－１、１５－１、１６－１、１７－１、１８－１、１９－１,２号棟、３号棟、４号棟、５号棟、６号棟、７号棟,３階以上の階段及び踊り場,,,0,津波避難ビル,200340,26271.55261,58489.69171,承認済み,2017/5/16 9:30,,庁外公開
67,今津留住宅,岩田町２丁目１４－１、１５－１、１６－１、１７－１、１８－１、１９－１,２号棟、３号棟、４号棟、５号棟、６号棟、７号棟,３階以上の階段及び踊り場,,,0,津波避難ビル,200341,26238.42565,58498.44638,承認済み,2017/5/16 9:30,,庁外公開
67,今津留住宅,岩田町２丁目１４－１、１５－１、１６－１、１７－１、１８－１、１９－１,２号棟、３号棟、４号棟、５号棟、６号棟、７号棟,３階以上の階段及び踊り場,,,0,津波避難ビル,200342,26210.92473,58507.81955,承認済み,2017/5/16 9:30,,庁外公開
67,今津留住宅,岩田町２丁目１４－１、１５－１、１６－１、１７－１、１８－１、１９－１,２号棟、３号棟、４号棟、５号棟、６号棟、７号棟,３階以上の階段及び踊り場,,,0,津波避難ビル,200343,26286.54609,58537.81906,承認済み,2017/5/16 9:30,,庁外公開
67,今津留住宅,岩田町２丁目１４－１、１５－１、１６－１、１７－１、１８－１、１９－１,２号棟、３号棟、４号棟、５号棟、６号棟、７号棟,３階以上の階段及び踊り場,,,0,津波避難ビル,200344,26257.80052,58557.82376,承認済み,2017/5/16 9:30,,庁外公開
67,今津留住宅,岩田町２丁目１４－１、１５－１、１６－１、１７－１、１８－１、１９－１,２号棟、３号棟、４号棟、５号棟、６号棟、７号棟,３階以上の階段及び踊り場,,,0,津波避難ビル,200345,26229.04709,58572.82417,承認済み,2017/5/16 9:30,,庁外公開
67,今津留住宅,岩田町３丁目２５－１、２５－２,８号棟、９号棟,３階以上の階段及び踊り場,,,0,津波避難ビル,200346,26267.79801,58619.68986,承認済み,2017/5/16 9:30,,庁外公開
67,今津留住宅,岩田町３丁目２５－１、２５－２,８号棟、９号棟,３階以上の階段及び踊り場,,,0,津波避難ビル,200347,26239.67602,58627.19393,承認済み,2017/5/16 9:30,,庁外公開
67,大洲住宅,大津町１丁目１６－１、１６－２、１６－３,１号棟、２号棟、３号棟,３階以上の階段及び踊り場,,,0,津波避難ビル,200348,27672.94833,57961.34822,承認済み,2017/5/16 9:30,,庁外公開
67,大洲住宅,大津町１丁目１６－１、１６－２、１６－３,１号棟、２号棟、３号棟,３階以上の階段及び踊り場,,,0,津波避難ビル,200349,27703.58037,57948.85675,承認済み,2017/5/16 9:30,,庁外公開
67,大洲住宅,大津町１丁目１６－１、１６－２、１６－３,１号棟、２号棟、３号棟,３階以上の階段及び踊り場,,,0,津波避難ビル,200350,27734.83027,57946.97465,承認済み,2017/5/16 9:30,,庁外公開
68,大分赤十字病院（管理棟）,千代町３丁目２－３７,,５階大会議室ほか,,,0,津波避難ビル,200351,27192.09301,56376.51802,承認済み,2017/5/16 9:30,,庁外公開
69,市営東浦住宅,東鶴崎３丁目５番,Ａ、Ｂ,３・４階の階段・踊り場,,,0,津波避難ビル,200352,26551.70718,64756.63687,承認済み,2017/5/16 9:30,,庁外公開
69,市営東浦住宅,東鶴崎３丁目５番,Ａ、Ｂ,３・４階の階段・踊り場,,,0,津波避難ビル,200353,26527.96454,64751.64166,承認済み,2017/5/16 9:30,,庁外公開
70,フレッシュガーデンＫ,東大道１丁目８番８号,,３～６階の階段・踊り場・通路,,,0,津波避難ビル,200354,25827.8768,56253.29655,承認済み,2017/5/16 9:30,,庁外公開
71,ステラコート,東大道１丁目１０番２７号,,３～５階の階段・踊り場・通路,,,0,津波避難ビル,200355,25867.68725,56154.11172,承認済み,2017/5/16 9:30,,庁外公開
72,明日香大分駅南,東大道１丁目８番３４号,,３～１１階の階段・踊り場・通路,,,0,津波避難ビル,200356,25871.96279,56233.33045,承認済み,2017/5/16 9:30,,庁外公開
73,ＴＡＳＳビル,花高松２丁目４－１５,,３～７階の階段・踊り場・通路,,,0,津波避難ビル,200357,27987.26479,61932.98783,承認済み,2017/5/16 9:30,,庁外公開
74,高松センタービル,高松東１丁目１－３,,３～７階の階段・踊り場・通路,,,0,津波避難ビル,200358,27355.72393,61313.72011,承認済み,2017/5/16 9:30,,庁外公開
75,サンヒルズクレスト,日岡３丁目１－１６,,３・４階の階段・踊り場・通路,,,0,津波避難ビル,200359,28016.69528,61303.54107,承認済み,2017/5/16 9:30,,庁外公開
76,グローリー三川,三川上１丁目６－１１,,３・４階の階段・踊り場・通路,,,0,津波避難ビル,200360,27300.88616,63017.79948,承認済み,2017/5/16 9:30,,庁外公開
77,パレ・ドール鶴崎Ⅱ,南鶴崎３丁目２番１０号,,３～１１階の階段・踊り場・廊下,,,0,津波避難ビル,200361,26748.46046,64649.16111,承認済み,2017/5/16 9:30,,庁外公開
78,官報ビル,中春日５－２２,,３～６階の階段・踊り場・廊下,,,0,津波避難ビル,200362,26691.1372,55636.92944,承認済み,2017/5/16 9:30,,庁外公開
80,ポラリス中津留,中津留１丁目４番２号,,３・４階の階段・踊り場・廊下,,,0,津波避難ビル,200364,27127.54152,58570.9025,承認済み,2017/5/16 9:30,,庁外公開
81,アーバンハイツさくら,高松東３丁目４－２７,,３・４階の階段・踊り場・通路,,,0,津波避難ビル,200365,27658.46854,61799.88047,承認済み,2017/5/16 9:30,,庁外公開
82,サンライズ花園,花園１１組６－２,,３～１１階の階段・踊り場・廊下,,,0,津波避難ビル,200366,23640.88142,56915.67569,承認済み,2017/5/16 9:30,,庁外公開
83,大分合同庁舎,新川町２丁目１番３６号,,３階～５階の階段並びに廊下等,,,0,津波避難ビル,200367,27797.62818,56614.46592,承認済み,2017/5/16 9:30,,庁外公開
84,介護付有料老人ホーム　ハーモニー四季,花高松１丁目６－２６,,３階～４階の階段・踊り場・廊下,,,0,津波避難ビル,200368,27870.22661,61841.619,承認済み,2017/5/16 9:30,,庁外公開
85,エグゼファーム,中津留２丁目２番３号,,３階～５階の階段・踊り場・廊下,,,0,津波避難ビル,200369,27360.99893,58471.5053,承認済み,2017/5/16 9:30,,庁外公開
86,市営北住宅,大在北３丁目１１番,１Ａ１、２Ａ１,３～５階の階段・踊り場,,,0,津波避難ビル,200370,28476.53872,66209.86036,承認済み,2017/5/16 9:30,,庁外公開
86,第６パルコ,北鶴崎２丁目７－２１,,３階～５階の階段・踊り場・通路,,,0,津波避難ビル,200376,26954.61219,64638.93519,承認済み,2017/5/16 9:30,,庁外公開
87,市営浜住宅,汐見１丁目６番,２Ａ１,３・４階の階段・踊り場・通路,,,0,津波避難ビル,200371,27766.76452,68001.76319,承認済み,2017/5/16 9:30,,庁外公開
87,ハピネス鶴崎,西鶴崎２丁目３番１６号,,３階～６階の階段・踊り場・通路,,,0,津波避難ビル,200377,27081.19596,63558.83154,承認済み,2017/5/16 9:30,,庁外公開
88,市営村田住宅,大字政所２１０８番地の２,１Ａ１、２Ａ１,３・４階の階段・踊り場・通路,,,0,津波避難ビル,200372,27105.97935,67354.47259,承認済み,2017/5/16 9:30,,庁外公開
88,市営村田住宅,大字政所２１０８番地の２,１Ａ１、２Ａ１,３・４階の階段・踊り場・通路,,,0,津波避難ビル,200373,27089.73359,67365.72099,承認済み,2017/5/16 9:30,,庁外公開
89,市営坂ノ市住宅,久原中央１丁目１０番,２Ａ１、１Ａ１,３・４階の階段・踊り場・通路,,,0,津波避難ビル,200374,26524.24996,70620.99304,承認済み,2017/5/16 9:30,,庁外公開
89,市営坂ノ市住宅,久原中央１丁目１０番,２Ａ１、１Ａ１,３・４階の階段・踊り場・通路,,,0,津波避難ビル,200375,26566.11757,70621.6203,承認済み,2017/5/16 9:30,,庁外公開
92,コスモス苑,東鶴崎２丁目３番２２号,,３階～４階の階段・踊り場・通路,,,0,津波避難ビル,200378,26637.15567,64871.75568,承認済み,2017/5/16 9:30,,庁外公開
93,駅南住宅みやびのもり,金池南１丁目８番１３号,,３階～６階の階段・踊り場・共用廊下・ふれあいスペース・ＥＶホール,,,0,津波避難ビル,200379,25639.88067,56441.92625,承認済み,2017/5/16 9:30,,庁外公開
94,第２駅南住宅ふれあいのもり,顕徳町１丁目１３番８号,,３階～８階の階段・踊り場・共用廊下・ふれあいプラザ・ＥＶホール・ふれあい広場,,,0,津波避難ビル,200380,25718.92556,57088.97004,承認済み,2017/5/16 9:30,,庁外公開
95,S＆E　Clear,久原中央３丁目２番２５番,,３階～５階の階段・通路,,,0,津波避難ビル,200381,26400.55537,71103.25467,承認済み,2017/5/16 9:30,,庁外公開
96,サンシャイン萩原,萩原２丁目９－２７,,３階～６階の階段・踊り場・通路,,,0,津波避難ビル,200382,27432.86067,59699.11732,承認済み,2017/5/16 9:30,,庁外公開
97,メゾン芦刈,大在中央１－１２－１,,３階部分の通路,,,0,津波避難ビル,200383,27461.61255,67141.8784,承認済み,2017/5/16 9:30,,庁外公開
98,メゾン芦刈Ⅱ,大在中央１－１２－４,,３階～５階の階段・踊り場・通路,,,0,津波避難ビル,200384,27472.44009,67161.70728,承認済み,2017/5/16 9:30,,庁外公開
99,パールピアス,大在中央２－１－１８,,３階～４階の階段・踊り場・通路,,,0,津波避難ビル,200385,27353.79736,67191.22892,承認済み,2017/5/16 9:30,,庁外公開
100,萱島ビル,大在中央２－１－３,,３階部分の通路,,,0,津波避難ビル,200386,27390.30785,67188.55339,承認済み,2017/5/16 9:30,,庁外公開
101,ベルエール大在,政所１－４－４７,,３階～１２階の階段・踊り場・通路,,,0,津波避難ビル,200387,27563.64196,67422.57171,承認済み,2017/5/16 9:30,,庁外公開
102,ビーハイヴⅠ,政所２１６３－１,,３階部分の通路,,,0,津波避難ビル,200388,27000.38924,67294.38223,承認済み,2017/5/16 9:30,,庁外公開
103,オクタヴィアＬ,大在中央２－２－３,,３階～９階の階段・踊り場・通路,,,0,津波避難ビル,200389,27460.28232,67222.07129,承認済み,2017/5/16 9:30,,庁外公開
104,クレアパーク,大在中央２－５－２７,,３階～５階の階段・踊り場・通路,,,0,津波避難ビル,200390,27236.94876,67282.78102,承認済み,2017/5/16 9:30,,庁外公開
105,ブラッサムＫ,政所１－１－１６,,３階～４階の階段・踊り場・通路,,,0,津波避難ビル,200391,27628.16508,67312.90617,承認済み,2017/5/16 9:30,,庁外公開
106,セフィーロス大在,大在中央２－４－１１,,３階～５階の階段・踊り場・通路,,,0,津波避難ビル,200392,27351.54455,67261.44906,承認済み,2017/5/16 9:30,,庁外公開
107,ユナイテッド鶴崎,南鶴崎３丁目２番６号,,３階～８階部分の階段・踊り場・通路,,,0,津波避難ビル,200393,26776.71167,64656.76371,承認済み,2017/5/16 9:30,,庁外公開
108,Ｍ＆Ｔ,大在北４－８－８,,３階部分の通路,,,0,津波避難ビル,200394,28390.74487,66699.81399,承認済み,2017/5/16 9:30,,庁外公開
108,三和コーポ岩田,岩田町１丁目１２－１,,３階～１２階部分の階段・踊り場・通路・ＥＶホール,,,0,津波避難ビル,200453,26118.38506,58422.99298,承認済み,2017/5/16 9:30,,庁外公開
109,ユニティ２１,大在北４－８－３１,,３階部分の通路,,,0,津波避難ビル,200395,28329.26775,66719.63514,承認済み,2017/5/16 9:30,,庁外公開
109,コープ野村岩田町,岩田町１丁目１－１９,,３階～７階の階段・踊り場・通路,,,0,津波避難ビル,200454,26336.56104,58403.17222,承認済み,2017/5/16 9:30,,庁外公開
110,県営大空住宅,大津町３丁目１番、２番、３番、大津町２丁目２番、３番、４番、６番、７番,２Ａ－１、１Ａ－２、２Ａ－３、２Ａ－４、２Ａ－５、１Ａ－６、２Ａ－７、１Ａ－８、２Ａ－９,３～５階階段・踊り場,,,0,津波避難ビル,200408,27723.80233,58572.3412,承認済み,2017/5/16 9:30,,庁外公開
110,県営大空住宅,大津町３丁目１番、２番、３番、大津町２丁目２番、３番、４番、６番、７番,２Ａ－１、１Ａ－２、２Ａ－３、２Ａ－４、２Ａ－５、１Ａ－６、２Ａ－７、１Ａ－８、２Ａ－９,３～５階階段・踊り場,,,0,津波避難ビル,200409,27714.42234,58524.83943,承認済み,2017/5/16 9:30,,庁外公開
110,県営大空住宅,大津町３丁目１番、２番、３番、大津町２丁目２番、３番、４番、６番、７番,２Ａ－１、１Ａ－２、２Ａ－３、２Ａ－４、２Ａ－５、１Ａ－６、２Ａ－７、１Ａ－８、２Ａ－９,３～５階階段・踊り場,,,0,津波避難ビル,200410,27753.7978,58526.09322,承認済み,2017/5/16 9:30,,庁外公開
110,県営大空住宅,大津町３丁目１番、２番、３番、大津町２丁目２番、３番、４番、６番、７番,２Ａ－１、１Ａ－２、２Ａ－３、２Ａ－４、２Ａ－５、１Ａ－６、２Ａ－７、１Ａ－８、２Ａ－９,３～５階階段・踊り場,,,0,津波避難ビル,200411,27793.80728,58479.84119,承認済み,2017/5/16 9:30,,庁外公開
110,県営大空住宅,大津町３丁目１番、２番、３番、大津町２丁目２番、３番、４番、６番、７番,２Ａ－１、１Ａ－２、２Ａ－３、２Ａ－４、２Ａ－５、１Ａ－６、２Ａ－７、１Ａ－８、２Ａ－９,３～５階階段・踊り場,,,0,津波避難ビル,200412,27742.551,58371.09384,承認済み,2017/5/16 9:30,,庁外公開
110,県営大空住宅,大津町３丁目１番、２番、３番、大津町２丁目２番、３番、４番、６番、７番,２Ａ－１、１Ａ－２、２Ａ－３、２Ａ－４、２Ａ－５、１Ａ－６、２Ａ－７、１Ａ－８、２Ａ－９,３～５階階段・踊り場,,,0,津波避難ビル,200413,27788.17583,58395.4747,承認済み,2017/5/16 9:30,,庁外公開
110,県営大空住宅,大津町３丁目１番、２番、３番、大津町２丁目２番、３番、４番、６番、７番,２Ａ－１、１Ａ－２、２Ａ－３、２Ａ－４、２Ａ－５、１Ａ－６、２Ａ－７、１Ａ－８、２Ａ－９,３～５階階段・踊り場,,,0,津波避難ビル,200414,27828.80464,58400.46719,承認済み,2017/5/16 9:30,,庁外公開
110,県営大空住宅,大津町３丁目１番、２番、３番、大津町２丁目２番、３番、４番、６番、７番,２Ａ－１、１Ａ－２、２Ａ－３、２Ａ－４、２Ａ－５、１Ａ－６、２Ａ－７、１Ａ－８、２Ａ－９,３～５階階段・踊り場,,,0,津波避難ビル,200415,27860.05419,58392.97437,承認済み,2017/5/16 9:30,,庁外公開
110,県営大空住宅,大津町３丁目１番、２番、３番、大津町２丁目２番、３番、４番、６番、７番,２Ａ－１、１Ａ－２、２Ａ－３、２Ａ－４、２Ａ－５、１Ａ－６、２Ａ－７、１Ａ－８、２Ａ－９,３～５階階段・踊り場,,,0,津波避難ビル,200416,27881.92825,58338.59545,承認済み,2017/5/16 9:30,,庁外公開
110,県営大空住宅,大津町３丁目４番２３、４番３４、１番３、２番１,ＨＲＲ－１、ＨＲＲ－２、ＭＲＲ－３、ＭＲＲ－４,ＨＲＲ－１　３～７階階段・踊り場・廊下、ＨＲＲ－２　３～６階階段・踊り場・廊下、ＭＲＲ－３　３階踊り場、ＭＲＲ－４　３～４階階段・踊り場・廊下,,,0,津波避難ビル,200417,27788.79933,58550.47208,承認済み,2017/5/16 9:30,,庁外公開
110,県営大空住宅,大津町３丁目４番２３、４番３４、１番３、２番１,ＨＲＲ－１、ＨＲＲ－２、ＭＲＲ－３、ＭＲＲ－４,ＨＲＲ－１　３～７階階段・踊り場・廊下、ＨＲＲ－２　３～６階階段・踊り場・廊下、ＭＲＲ－３　３階踊り場、ＭＲＲ－４　３～４階階段・踊り場・廊下,,,0,津波避難ビル,200418,27823.18058,58486.71801,承認済み,2017/5/16 9:30,,庁外公開
110,県営大空住宅,大津町３丁目４番２３、４番３４、１番３、２番１,ＨＲＲ－１、ＨＲＲ－２、ＭＲＲ－３、ＭＲＲ－４,ＨＲＲ－１　３～７階階段・踊り場・廊下、ＨＲＲ－２　３～６階階段・踊り場・廊下、ＭＲＲ－３　３階踊り場、ＭＲＲ－４　３～４階階段・踊り場・廊下,,,0,津波避難ビル,200419,27708.80526,58439.22358,承認済み,2017/5/16 9:30,,庁外公開
110,県営大空住宅,大津町３丁目４番２３、４番３４、１番３、２番１,ＨＲＲ－１、ＨＲＲ－２、ＭＲＲ－３、ＭＲＲ－４,ＨＲＲ－１　３～７階階段・踊り場・廊下、ＨＲＲ－２　３～６階階段・踊り場・廊下、ＭＲＲ－３　３階踊り場、ＭＲＲ－４　３～４階階段・踊り場・廊下,,,0,津波避難ビル,200420,27735.67637,58450.46705,承認済み,2017/5/16 9:30,,庁外公開
111,県営大空第２住宅,西新地２丁目３番７号、西新地２丁目３番１８号,１Ａ－２、２Ａ－１,３～５階階段・踊り場,,,0,津波避難ビル,200396,28103.98583,58340.6077,承認済み,2017/5/16 9:30,,庁外公開
111,県営大空第２住宅,西新地２丁目３番７号、西新地２丁目３番１８号,１Ａ－２、２Ａ－１,３～５階階段・踊り場,,,0,津波避難ビル,200397,28147.72945,58332.48124,承認済み,2017/5/16 9:30,,庁外公開
112,県営岩田住宅,岩田町４丁目３番、岩田町４丁目２番,１Ａ－１、１Ａ－２、１Ａ－３、２Ａ－４、２Ａ－５、１Ａ－６、１Ａ－７、２Ａ－８、１Ａ－９、１Ａ－１０,１Ａ－１・１Ａ－２・１Ａ－３・１Ａ－７・２Ａ－８　３～５階階段・踊り場、２Ａ－４・２Ａ－５・１Ａ－６・１Ａ－９、１Ａ－１０　３～４階階段・踊り場,,,0,津波避難ビル,200398,26216.27286,58760.89013,承認済み,2017/5/16 9:30,,庁外公開
112,県営岩田住宅,岩田町４丁目３番、岩田町４丁目２番,１Ａ－１、１Ａ－２、１Ａ－３、２Ａ－４、２Ａ－５、１Ａ－６、１Ａ－７、２Ａ－８、１Ａ－９、１Ａ－１０,１Ａ－１・１Ａ－２・１Ａ－３・１Ａ－７・２Ａ－８　３～５階階段・踊り場、２Ａ－４・２Ａ－５・１Ａ－６・１Ａ－９、１Ａ－１０　３～４階階段・踊り場,,,0,津波避難ビル,200399,26180.65096,58703.39109,承認済み,2017/5/16 9:30,,庁外公開
112,県営岩田住宅,岩田町４丁目３番、岩田町４丁目２番,１Ａ－１、１Ａ－２、１Ａ－３、２Ａ－４、２Ａ－５、１Ａ－６、１Ａ－７、２Ａ－８、１Ａ－９、１Ａ－１０,１Ａ－１・１Ａ－２・１Ａ－３・１Ａ－７・２Ａ－８　３～５階階段・踊り場、２Ａ－４・２Ａ－５・１Ａ－６・１Ａ－９、１Ａ－１０　３～４階階段・踊り場,,,0,津波避難ビル,200400,26156.28334,58664.01504,承認済み,2017/5/16 9:30,,庁外公開
112,県営岩田住宅,岩田町４丁目３番、岩田町４丁目２番,１Ａ－１、１Ａ－２、１Ａ－３、２Ａ－４、２Ａ－５、１Ａ－６、１Ａ－７、２Ａ－８、１Ａ－９、１Ａ－１０,１Ａ－１・１Ａ－２・１Ａ－３・１Ａ－７・２Ａ－８　３～５階階段・踊り場、２Ａ－４・２Ａ－５・１Ａ－６・１Ａ－９、１Ａ－１０　３～４階階段・踊り場,,,0,津波避難ビル,200401,26185.65494,58760.88906,承認済み,2017/5/16 9:30,,庁外公開
112,県営岩田住宅,岩田町４丁目３番、岩田町４丁目２番,１Ａ－１、１Ａ－２、１Ａ－３、２Ａ－４、２Ａ－５、１Ａ－６、１Ａ－７、２Ａ－８、１Ａ－９、１Ａ－１０,１Ａ－１・１Ａ－２・１Ａ－３・１Ａ－７・２Ａ－８　３～５階階段・踊り場、２Ａ－４・２Ａ－５・１Ａ－６・１Ａ－９、１Ａ－１０　３～４階階段・踊り場,,,0,津波避難ビル,200402,26156.90636,58717.76532,承認済み,2017/5/16 9:30,,庁外公開
112,県営岩田住宅,岩田町４丁目３番、岩田町４丁目２番,１Ａ－１、１Ａ－２、１Ａ－３、２Ａ－４、２Ａ－５、１Ａ－６、１Ａ－７、２Ａ－８、１Ａ－９、１Ａ－１０,１Ａ－１・１Ａ－２・１Ａ－３・１Ａ－７・２Ａ－８　３～５階階段・踊り場、２Ａ－４・２Ａ－５・１Ａ－６・１Ａ－９、１Ａ－１０　３～４階階段・踊り場,,,0,津波避難ビル,200403,26131.27466,58680.26072,承認済み,2017/5/16 9:30,,庁外公開
112,県営岩田住宅,岩田町４丁目３番、岩田町４丁目２番,１Ａ－１、１Ａ－２、１Ａ－３、２Ａ－４、２Ａ－５、１Ａ－６、１Ａ－７、２Ａ－８、１Ａ－９、１Ａ－１０,１Ａ－１・１Ａ－２・１Ａ－３・１Ａ－７・２Ａ－８　３～５階階段・踊り場、２Ａ－４・２Ａ－５・１Ａ－６・１Ａ－９、１Ａ－１０　３～４階階段・踊り場,,,0,津波避難ビル,200404,26120.65115,58608.38855,承認済み,2017/5/16 9:30,,庁外公開
112,県営岩田住宅,岩田町４丁目３番、岩田町４丁目２番,１Ａ－１、１Ａ－２、１Ａ－３、２Ａ－４、２Ａ－５、１Ａ－６、１Ａ－７、２Ａ－８、１Ａ－９、１Ａ－１０,１Ａ－１・１Ａ－２・１Ａ－３・１Ａ－７・２Ａ－８　３～５階階段・踊り場、２Ａ－４・２Ａ－５・１Ａ－６・１Ａ－９、１Ａ－１０　３～４階階段・踊り場,,,0,津波避難ビル,200405,26093.15437,58542.76878,承認済み,2017/5/16 9:30,,庁外公開
112,県営岩田住宅,岩田町４丁目３番、岩田町４丁目２番,１Ａ－１、１Ａ－２、１Ａ－３、２Ａ－４、２Ａ－５、１Ａ－６、１Ａ－７、２Ａ－８、１Ａ－９、１Ａ－１０,１Ａ－１・１Ａ－２・１Ａ－３・１Ａ－７・２Ａ－８　３～５階階段・踊り場、２Ａ－４・２Ａ－５・１Ａ－６・１Ａ－９、１Ａ－１０　３～４階階段・踊り場,,,0,津波避難ビル,200406,26082.53182,58594.63951,承認済み,2017/5/16 9:30,,庁外公開
112,県営岩田住宅,岩田町４丁目３番、岩田町４丁目２番,１Ａ－１、１Ａ－２、１Ａ－３、２Ａ－４、２Ａ－５、１Ａ－６、１Ａ－７、２Ａ－８、１Ａ－９、１Ａ－１０,１Ａ－１・１Ａ－２・１Ａ－３・１Ａ－７・２Ａ－８　３～５階階段・踊り場、２Ａ－４・２Ａ－５・１Ａ－６・１Ａ－９、１Ａ－１０　３～４階階段・踊り場,,,0,津波避難ビル,200407,26064.4038,58549.01841,承認済み,2017/5/16 9:30,,庁外公開
113,県営舞鶴住宅,舞鶴町１丁目１０番１０号、舞鶴町２丁目８番１１号,１Ａ－１、Ｂ,１Ａ－１　３階階段・踊り場、Ｂ　３～５階階段・踊り場,,,0,津波避難ビル,200421,26779.77393,57739.83706,承認済み,2017/5/16 9:30,,庁外公開
113,県営舞鶴住宅,舞鶴町１丁目１０番１０号、舞鶴町２丁目８番１１号,１Ａ－１、Ｂ,１Ａ－１　３階階段・踊り場、Ｂ　３～５階階段・踊り場,,,0,津波避難ビル,200422,26979.77666,57677.33316,承認済み,2017/5/16 9:30,,庁外公開
114,県営花津留住宅,東浜２丁目１９番２２号、東浜２丁目６番１号,Ａ－１、Ａ－２,Ａ－１　３階～４階階段・踊り場・廊下、Ａ－２　３階階段・踊り場,,,0,津波避難ビル,200423,27668.3682,59248.67002,承認済み,2017/5/16 9:30,,庁外公開
114,県営花津留住宅,東浜２丁目１９番２２号、東浜２丁目６番１号,Ａ－１、Ａ－２,Ａ－１　３階～４階階段・踊り場・廊下、Ａ－２　３階階段・踊り場,,,0,津波避難ビル,200424,27700.87118,58999.3028,承認済み,2017/5/16 9:30,,庁外公開
115,県営高松住宅,原新町９番１１号、原新町９番１８号,１Ａ、２Ａ,１Ａ　３～５階階段・踊り場、２Ａ　３～４階階段・踊り場,,,0,津波避難ビル,200425,27678.55682,60672.69558,承認済み,2017/5/16 9:30,,庁外公開
115,県営高松住宅,原新町９番１１号、原新町９番１８号,１Ａ、２Ａ,１Ａ　３～５階階段・踊り場、２Ａ　３～４階階段・踊り場,,,0,津波避難ビル,200426,27664.18686,60699.56467,承認済み,2017/5/16 9:30,,庁外公開
116,県営徳島住宅,徳島２丁目１番１０,１Ａ－１,３～４階階段・踊り場,,,0,津波避難ビル,200427,27187.31161,64721.73828,承認済み,2017/5/16 9:30,,庁外公開
117,県営生石住宅,大字駄原１３２３番地の１、大字生石４１８番地の１、大字生石４２５番地、大字駄原１３１８番地の１,１Ａ－１、１Ａ－２、２Ａ－３、２Ａ－４,１Ａ－１　３～６階階段・踊り場・廊下、１Ａ－２・２Ａ－３・２Ａ－４　３～４階階段・踊り場,,,0,津波避難ビル,200428,26805.14317,54846.28911,承認済み,2017/5/16 9:30,,庁外公開
117,県営生石住宅,大字駄原１３２３番地の１、大字生石４１８番地の１、大字生石４２５番地、大字駄原１３１８番地の１,１Ａ－１、１Ａ－２、２Ａ－３、２Ａ－４,１Ａ－１　３～６階階段・踊り場・廊下、１Ａ－２・２Ａ－３・２Ａ－４　３～４階階段・踊り場,,,0,津波避難ビル,200429,26860.76194,54806.2879,承認済み,2017/5/16 9:30,,庁外公開
117,県営生石住宅,大字駄原１３２３番地の１、大字生石４１８番地の１、大字生石４２５番地、大字駄原１３１８番地の１,１Ａ－１、１Ａ－２、２Ａ－３、２Ａ－４,１Ａ－１　３～６階階段・踊り場・廊下、１Ａ－２・２Ａ－３・２Ａ－４　３～４階階段・踊り場,,,0,津波避難ビル,200430,26779.51972,54860.66312,承認済み,2017/5/16 9:30,,庁外公開
117,県営生石住宅,大字駄原１３２３番地の１、大字生石４１８番地の１、大字生石４２５番地、大字駄原１３１８番地の１,１Ａ－１、１Ａ－２、２Ａ－３、２Ａ－４,１Ａ－１　３～６階階段・踊り場・廊下、１Ａ－２・２Ａ－３・２Ａ－４　３～４階階段・踊り場,,,0,津波避難ビル,200431,26756.39144,54875.04175,承認済み,2017/5/16 9:30,,庁外公開
118,県営志村住宅,大在北３丁目２番,１Ａ－１,３～５階階段・踊り場,,,0,津波避難ビル,200432,28472.33281,66028.71232,承認済み,2017/5/16 9:30,,庁外公開
119,県営下郡住宅,大字下郡１６３９番地の２,２Ａ－１、２Ａ－２、２Ａ－３、１Ａ－４,２Ａ－１・２Ａ－３　３～５階階段・踊り場、２Ａ－２・１Ａ－４　３～４階階段・踊り場,,,0,津波避難ビル,200433,26321.7119,59175.23616,承認済み,2017/5/16 9:30,,庁外公開
119,県営下郡住宅,大字下郡１６３９番地の２,２Ａ－１、２Ａ－２、２Ａ－３、１Ａ－４,２Ａ－１・２Ａ－３　３～５階階段・踊り場、２Ａ－２・１Ａ－４　３～４階階段・踊り場,,,0,津波避難ビル,200434,26351.71389,59205.23803,承認済み,2017/5/16 9:30,,庁外公開
119,県営下郡住宅,大字下郡１６３９番地の２,２Ａ－１、２Ａ－２、２Ａ－３、１Ａ－４,２Ａ－１・２Ａ－３　３～５階階段・踊り場、２Ａ－２・１Ａ－４　３～４階階段・踊り場,,,0,津波避難ビル,200435,26290.45948,59183.99104,承認済み,2017/5/16 9:30,,庁外公開
119,県営下郡住宅,大字下郡１６３９番地の２,２Ａ－１、２Ａ－２、２Ａ－３、１Ａ－４,２Ａ－１・２Ａ－３　３～５階階段・踊り場、２Ａ－２・１Ａ－４　３～４階階段・踊り場,,,0,津波避難ビル,200436,26321.08664,59216.48667,承認済み,2017/5/16 9:30,,庁外公開
120,県営上春日住宅,大字駄原２８８１番地の３５,１Ａ－１、１Ａ－２,３～４階階段・踊り場,,,0,津波避難ビル,200437,25649.00709,55202.78407,承認済み,2017/5/16 9:30,,庁外公開
120,県営上春日住宅,大字駄原２８８１番地の３５,１Ａ－１、１Ａ－２,３～４階階段・踊り場,,,0,津波避難ビル,200438,25679.62542,55199.04077,承認済み,2017/5/16 9:30,,庁外公開
120,県営大在住宅,横田１丁目１２番、横田１丁目１１番,２Ａ－１、２Ａ－２、２Ａ－３、１Ａ－４,３～４階階段・踊り場,,,0,津波避難ビル,200440,27939.46461,66976.73062,承認済み,2017/5/16 9:30,,庁外公開
121,県営大在住宅,横田１丁目１２番、横田１丁目１１番,２Ａ－１、２Ａ－２、２Ａ－３、１Ａ－４,３～４階階段・踊り場,,,0,津波避難ビル,200439,27960.71107,66994.23187,承認済み,2017/5/16 9:30,,庁外公開
121,県営大在住宅,横田１丁目１２番、横田１丁目１１番,２Ａ－１、２Ａ－２、２Ａ－３、１Ａ－４,３～４階階段・踊り場,,,0,津波避難ビル,200441,27890.08942,66987.35844,承認済み,2017/5/16 9:30,,庁外公開
121,県営大在住宅,横田１丁目１２番、横田１丁目１１番,２Ａ－１、２Ａ－２、２Ａ－３、１Ａ－４,３～４階階段・踊り場,,,0,津波避難ビル,200442,27873.83946,66949.85433,承認済み,2017/5/16 9:30,,庁外公開
122,県営花園住宅,花園１８組、花園１９組,８５、８６,８５　３～１０階階段・踊り場・廊下、８６　３～１２階階段・踊り場・廊下,,,0,津波避難ビル,200443,23414.53603,56780.7131,承認済み,2017/5/16 9:30,,庁外公開
122,県営花園住宅,花園１８組、花園１９組,８５、８６,８５　３～１０階階段・踊り場・廊下、８６　３～１２階階段・踊り場・廊下,,,0,津波避難ビル,200444,23445.16287,56833.22206,承認済み,2017/5/16 9:30,,庁外公開
123,第６府内プロパンビル,西鶴崎１丁目３－７,,３階～８階部分の階段・踊り場・通路,,,0,津波避難ビル,200445,27072.56683,63856.61139,承認済み,2017/5/16 9:30,,庁外公開
124,西の丸ビル,生石３丁目１－２９,,３階～７階の階段・踊り場・通路,,,0,津波避難ビル,200446,27234.22483,54781.87439,承認済み,2017/5/16 9:30,,庁外公開
125,シャトレ松原,松原町３－２－４,,３階～５階の階段・踊り場・通路,,,0,津波避難ビル,200447,27958.14829,60952.09843,承認済み,2017/5/16 9:30,,庁外公開
126,大分市消防局,舞鶴町１丁目１番１号,,４階講堂,,,0,津波避難ビル,200448,26729.35984,57411.79773,承認済み,2017/5/16 9:30,,庁外公開
127,大分市東消防署,東鶴崎１丁目１番２６号,,４階講堂,,,0,津波避難ビル,200449,26967.86125,64716.65974,承認済み,2017/5/16 9:30,,庁外公開
128,コンパルホール,府内町１丁目５番３８号,,３階～６階の階段・通路・ロビー,,,0,津波避難ビル,200450,26265.90997,56963.8936,承認済み,2017/5/16 9:30,,庁外公開
131,日本通商ビル,政所２２０３,,３階～５階の階段・踊り場・通路,,,0,津波避難ビル,200455,26948.12604,67229.04768,承認済み,2017/5/16 9:30,,庁外公開
132,パークサイド花高松,花高松１丁目４番６号,,３階～８階の階段・踊り場・通路,,,0,津波避難ビル,200456,27845.66049,61905.21959,承認済み,2017/5/16 9:30,,庁外公開
133,国際交流会館,錦町１－７－３６,,３階～４階の階段・踊り場・通路,,,0,津波避難ビル,200457,26198.76382,57735.34026,承認済み,2017/5/16 9:30,,庁外公開
134,エミネンスⅢ,大在北１－１６－３１,,３階部分の通路,,,0,津波避難ビル,200458,27941.93107,66469.22795,承認済み,2017/5/16 9:30,,庁外公開
135,レジオン中鶴崎,中鶴崎１－１０－２３,,３階～１５階の階段・踊り場・通路,,,0,津波避難ビル,200459,26918.27431,64314.02077,承認済み,2017/5/16 9:30,,庁外公開
136,パークハイツ馬場,大字鶴崎２６７６－１,,３階～４階の階段・踊り場・通路,,,0,津波避難ビル,200460,27275.85163,64105.93457,承認済み,2017/5/16 9:30,,庁外公開
137,レインボーハイツ鶴崎,大字鶴崎２３６６－１,,３階部分の通路,,,0,津波避難ビル,200461,27337.56178,63883.709,承認済み,2017/5/16 9:30,,庁外公開
138,岡病院,西鶴崎３－７－１１,,３階～５階の階段・踊り場・通路,,,0,津波避難ビル,200462,26847.56907,63936.84617,承認済み,2017/5/16 9:30,,庁外公開
139,グレイス河村,三佐３－１０－３１,,３階～４階の階段・踊り場・通路,,,0,津波避難ビル,200463,27923.86409,63228.60075,承認済み,2017/5/16 9:30,,庁外公開
140,鶴羽ビル,萩原２－２－３６,,３階～１１階の階段・踊り場・通路,,,0,津波避難ビル,200464,27534.06075,59462.13508,承認済み,2017/5/16 9:30,,庁外公開
141,ハニーＴＯＭＯ,乙津港町２－１－２７,,３階～４階の階段・踊り場・通路,,,0,津波避難ビル,200465,26974.15249,62965.98075,承認済み,2017/5/16 9:30,,庁外公開
142,フレクション大分大在,大在北３－１０－１１,,３階～５階の階段・踊り場・通路,,,0,津波避難ビル,200466,28444.64608,66235.98006,承認済み,2017/5/16 9:30,,庁外公開
143,y.a.k.m,坂ノ市中央１丁目６－２５、坂ノ市中央１丁目６－３５,Ⅰ棟、Ⅱ棟,３階～４階の階段・通路,,,0,津波避難ビル,200467,26452.99084,70011.24764,承認済み,2017/5/16 9:30,,庁外公開
143,y.a.k.m,坂ノ市中央１丁目６－２５、坂ノ市中央１丁目６－３５,Ⅰ棟、Ⅱ棟,３階～４階の階段・通路,,,0,津波避難ビル,200468,26441.73733,69976.2412,承認済み,2017/5/16 9:30,,庁外公開
144,日鉄住金テックスエンジ社宅,向原西２－８－４１,,３階～５階の階段・踊り場・通路,,,0,津波避難ビル,200469,28482.12929,61412.08319,承認済み,2017/5/16 9:30,,庁外公開
146,コーポサンタ,西鶴崎２丁目１番２８号,,３階～４階の階段・踊り場・通路,,,0,津波避難ビル,200471,27133.76337,63446.18865,承認済み,2017/5/16 9:30,,庁外公開
147,鶴崎司法会館,三佐３－１－３,,３階～６階の階段・踊り場・通路,,,0,津波避難ビル,200472,28030.10172,63051.92589,承認済み,2017/5/16 9:30,,庁外公開
148,レジオン鶴崎,北鶴崎１丁目６－１１,,３階～９階の階段・踊り場・廊下及び屋上,,,0,津波避難ビル,200473,27023.04936,64409.52492,承認済み,2017/5/16 9:30,,庁外公開
149,インテリジェントコーポⅡＡ,政所２－３－１３,,３階～４階の階段・踊り場・通路,,,0,津波避難ビル,200474,28052.18554,67598.18021,承認済み,2017/5/16 9:30,,庁外公開
150,インテリジェントコーポⅡＢ,政所２－３－１５,,３階～４階の階段・踊り場・通路,,,0,津波避難ビル,200475,28046.56582,67611.30141,承認済み,2017/5/16 9:30,,庁外公開
151,ルネ大在,政所２－２－１８,,３階～８階の階段・踊り場・通路,,,0,津波避難ビル,200476,28074.46966,67568.66498,承認済み,2017/5/16 9:30,,庁外公開
152,フローラハイライズ駅南,東大道１丁目８番２０号,,３階～７階の階段・踊り場・通路,,,0,津波避難ビル,200477,25882.00035,56163.08746,承認済み,2017/5/16 9:30,,庁外公開
153,弁天水資源再生センター,弁天四丁目１－１,汚泥処理棟,３階の操作室・控え室及び３階以上の階段・階段室,,,0,津波避難ビル,200497,28105.36795,57298.91003,承認済み,2017/5/16 9:30,,庁外公開
154,アクアステージ大在,大在北３－１－２１,,３階～５階の階段・踊り場・通路,,,0,津波避難ビル,200498,28340.24927,66019.46373,承認済み,2017/5/16 9:30,,庁外公開
155,サンライズハイツ原川,三川下１－３－２,,３階部分の階段・踊り場,,,0,津波避難ビル,200499,27665.48671,62113.92296,承認済み,2017/5/16 9:30,,庁外公開
156,グリーンヒル碩田,碩田２－５－６,,３階～１１階の階段・踊り場・通路,,,0,津波避難ビル,200500,27625.73154,56873.15042,承認済み,2017/5/16 9:30,,庁外公開
157,カーサー大在北,大在北１－８－５０,,３階部分の通路,,,0,津波避難ビル,200501,27875.81428,66108.64088,承認済み,2017/5/16 9:30,,庁外公開
158,南日本造船㈱幸崎寮,大字本神崎１２２,,３階～７階の階段・踊り場・通路,,,0,津波避難ビル,200502,26688.58357,73707.77913,承認済み,2017/5/16 9:30,,庁外公開
160,グリーンヒル生石港,生石港町２丁目１２－１５,,３階～１４階の階段・踊り場・通路,,,0,津波避難ビル,200504,27692.78687,54109.34815,承認済み,2017/5/16 9:30,,庁外公開
161,HASドゥズペール生石港,生石港町２丁目５－１４,,３階～１３階の階段・踊り場・通路,,,0,津波避難ビル,200505,27661.37238,54330.45573,承認済み,2017/5/16 9:30,,庁外公開
162,ラポール中津留,中津留1丁目３番９号,,３階～１１階の階段・踊り場・通路,,,0,津波避難ビル,200517,27190.69459,58517.18359,承認済み,2017/5/16 9:30,,庁外公開
163,サンハイツ萩原,荻原３－１２－４８,,３階～７階の廊下・通路・階段,,,0,津波避難ビル,200518,27152.57066,60044.79028,承認済み,2017/5/16 9:30,,庁外公開
164,日光ハイツ,中鶴崎1丁目３番１０号,,３階～５階の階段・踊り場・通路,,,0,津波避難ビル,200519,26955.81195,64285.55446,承認済み,2017/5/16 9:30,,庁外公開
165,アスール５２,徳島３丁目６番２９号,,３階部分の通路,,,0,津波避難ビル,200520,27326.66517,64959.37327,承認済み,2017/5/16 9:30,,庁外公開
166,グランドオーク王子,王子山の手町５番１号,,３階～７階の階段・踊り場・通路,,,0,津波避難ビル,200521,26890.22575,54843.23713,承認済み,2017/5/16 9:30,,庁外公開
167,パークサイドはぎわら,萩原３－１１－１５,,３～８階の階段・踊り場・通路,,,0,津波避難ビル,200522,27111.24843,60021.3023,承認済み,2017/5/16 9:30,,庁外公開
169,ニューリバー７３,新川町２丁目９番３５号,,３階～５階の階段・踊り場・通路,,,0,津波避難ビル,200524,28057.11466,56844.47436,承認済み,2017/5/16 9:30,,庁外公開
170,佐伯ビル,城東町１０－８,,３階～７階の階段・踊り場・通路,,,0,津波避難ビル,200525,27082.34391,60510.45681,承認済み,2017/5/16 9:30,,庁外公開
171,コーポかわの,花津留１丁目１１－９,,３階部分の通路,,,0,津波避難ビル,200526,27392.48001,58944.58541,承認済み,2017/5/16 9:30,,庁外公開
172,イルマン安部,東津留２丁目２－３,,３階～４階の階段・踊り場・通路,,,0,津波避難ビル,200527,26929.50905,58894.98596,承認済み,2017/5/16 9:30,,庁外公開
173,メイルハイツ津留,東津留１丁目７－１３,,３階～４階の階段・踊り場・通路,,,0,津波避難ビル,200528,26952.0935,58840.99693,承認済み,2017/5/16 9:30,,庁外公開
174,メゾンＡＲＣ津留,東津留１丁目３－３１,,３階～４階の階段・踊り場・通路,,,0,津波避難ビル,200529,26770.6832,58663.5385,承認済み,2017/5/16 9:30,,庁外公開
175,こうざき小学校,本神崎９４５－２,,１階～２階の階段・踊り場・通路,,,0,津波避難ビル,200530,26722.99864,74494.87859,承認済み,2017/5/16 9:30,,庁外公開
176,神崎中学校,本神崎４８０,管理棟,１階～３階の階段・踊り場・通路,,,0,津波避難ビル,200531,26588.56642,74320.96815,承認済み,2017/5/16 9:30,,庁外公開
176,神崎中学校,本神崎４８０,普通特別棟,１階～４階の階段・踊り場・通路,,,0,津波避難ビル,200584,26582.31611,74285.34153,承認済み,2017/5/16 9:30,,庁外公開
177,八幡小学校,生石８２－１,北,３階～４階の階段・踊り場・通路,,,0,津波避難ビル,200532,27075.40651,53620.61274,承認済み,2017/5/16 9:30,,庁外公開
177,八幡小学校,生石８２－１,南,３階の通路,,,0,津波避難ビル,200585,27043.53137,53601.86314,承認済み,2017/5/16 9:30,,庁外公開
178,（旧）大志生木小学校,志生木２０７－１,,３階部分の通路,,,0,津波避難ビル,200533,27550.39007,77783.62329,承認済み,2017/5/16 9:30,,庁外公開
179,津留小学校,東津留１－４－１,北,３～４階の階段・踊り場・通路,,,0,津波避難ビル,200534,26875.91946,58762.16565,承認済み,2017/5/16 9:30,,庁外公開
179,津留小学校,東津留１－４－１,中,３階の通路,,,0,津波避難ビル,200586,26849.67351,58757.17112,承認済み,2017/5/16 9:30,,庁外公開
179,津留小学校,東津留１－４－１,南,３階の通路,,,0,津波避難ビル,200587,26821.54439,58769.0455,承認済み,2017/5/16 9:30,,庁外公開
180,西の台小学校,にじが丘３丁目１７１７－１,普通教室棟,１階～３階の階段・踊り場・通路,,,0,津波避難ビル,200535,25443.12798,54482.25186,承認済み,2017/5/16 9:30,,庁外公開
180,西の台小学校,にじが丘３丁目１７１７－１,普通教室棟,１階～３階の階段・踊り場・通路,,,0,津波避難ビル,200634,25467.5059,54455.37687,承認済み,2017/5/16 9:30,,庁外公開
181,大分西中学校,高崎２－２０－１,普通及び特別教室棟,１階～３階の階段・踊り場・通路,,,0,津波避難ビル,200536,26241.10878,53916.39019,承認済み,2017/5/16 9:30,,庁外公開
181,大分西中学校,高崎２－２０－１,管理・普通特別教室棟,１階～３階の階段・踊り場・通路,,,0,津波避難ビル,200636,26221.10901,53945.13871,承認済み,2017/5/16 9:30,,庁外公開
181,大分西中学校,高崎２－２０－１,管理・特別教室棟,１階～３階の階段・踊り場・通路,,,0,津波避難ビル,200637,26205.48344,53913.2609,承認済み,2017/5/16 9:30,,庁外公開
182,高田小学校,下徳丸３８－２,東,３階の通路,,,0,津波避難ビル,200537,23612.63259,64307.28501,承認済み,2017/5/16 9:30,,庁外公開
182,高田小学校,下徳丸３８－２,西,3階部分の通路,,,0,津波避難ビル,200588,23632.00902,64254.16249,承認済み,2017/5/16 9:30,,庁外公開
183,東陽中学校,下徳丸１９７－１,普通及び特別教室棟,３階部分の通路,,,0,津波避難ビル,200538,23428.32024,64590.35311,承認済み,2017/5/16 9:30,,庁外公開
183,東陽中学校,下徳丸１９７－１,管理・特別教室棟,３階部分の通路,,,0,津波避難ビル,200638,23383.93918,64583.46953,承認済み,2017/5/16 9:30,,庁外公開
184,大道小学校,大道町２－９－５７,管理特別普通教室棟,３～４階の階段・踊り場・通路,,,0,津波避難ビル,200539,26043.47181,55977.67817,承認済み,2017/5/16 9:30,,庁外公開
184,大道小学校,大道町２－９－５７,普通教室棟,３～４階の階段・踊り場・通路,,,0,津波避難ビル,200639,26078.46842,55958.30676,承認済み,2017/5/16 9:30,,庁外公開
184,大道小学校,大道町２－９－５７,特別教室棟,３～４階の階段・踊り場・通路,,,0,津波避難ビル,200640,26052.21878,55937.05161,承認済み,2017/5/16 9:30,,庁外公開
185,川添小学校,宮河内４５６６,北,１階～４階の階段・踊り場・通路,,,0,津波避難ビル,200540,22599.44651,65047.7829,承認済み,2017/5/16 9:30,,庁外公開
185,川添小学校,宮河内４５６６,南,１階～３階の階段・踊り場・通路,,,0,津波避難ビル,200589,22571.9439,65065.90491,承認済み,2017/5/16 9:30,,庁外公開
186,金池小学校,金池町３－１－９０,南,３階部分の通路,,,0,津波避難ビル,200541,26087.25684,57105.3488,承認済み,2017/5/16 9:30,,庁外公開
186,金池小学校,金池町３－１－９０,北,３階部分の通路,,,0,津波避難ビル,200583,26149.76054,57104.09563,承認済み,2017/5/16 9:30,,庁外公開
187,上野ヶ丘中学校,上野町４－５,管理棟,３階部分の通路,,,0,津波避難ビル,200542,25476.90538,57123.99225,承認済み,2017/5/16 9:30,,庁外公開
187,上野ヶ丘中学校,上野町４－５,特別教室棟,３階部分の通路,,,0,津波避難ビル,200641,25493.78974,57149.61597,承認済み,2017/5/16 9:30,,庁外公開
187,上野ヶ丘中学校,上野町４－５,普通教室棟,３階部分の通路,,,0,津波避難ビル,200642,25455.03606,57157.74752,承認済み,2017/5/16 9:30,,庁外公開
188,鶴崎中学校,皆春１２００－１,中,３～４階の階段・踊り場・通路,,,0,津波避難ビル,200543,26437.3559,64054.02707,承認済み,2017/5/16 9:30,,庁外公開
188,鶴崎中学校,皆春１２００－１,北,３階部分の通路,,,0,津波避難ビル,200590,26457.35147,64082.77586,承認済み,2017/5/16 9:30,,庁外公開
188,鶴崎中学校,皆春１２００－１,南,３～４階の階段・踊り場・通路,,,0,津波避難ビル,200591,26415.48424,64038.40294,承認済み,2017/5/16 9:30,,庁外公開
189,城東中学校,牧上町１４－１９,南東,３階の階段・踊り場・通路,,,0,津波避難ビル,200544,26689.5899,60224.08513,承認済み,2017/5/16 9:30,,庁外公開
189,城東中学校,牧上町１４－１９,北東,３～４階の階段・踊り場・通路,,,0,津波避難ビル,200592,26726.46392,60184.70827,承認済み,2017/5/16 9:30,,庁外公開
189,城東中学校,牧上町１４－１９,南西,３階部分の通路,,,0,津波避難ビル,200593,26677.71067,60164.71378,承認済み,2017/5/16 9:30,,庁外公開
190,大在西小学校,角子原１－４－４１,管理・普通特別教室棟,３階部分の通路,,,0,津波避難ビル,200545,27633.13225,66019.3588,承認済み,2017/5/16 9:30,,庁外公開
190,大在西小学校,角子原１－４－４１,普通教室棟,３階部分の通路,,,0,津波避難ビル,200643,27680.01157,66044.35718,承認済み,2017/5/16 9:30,,庁外公開
190,大在西小学校,角子原１－４－４１,地域連携・特別教室棟,３階部分の通路,,,0,津波避難ビル,200644,27635.00346,66074.36103,承認済み,2017/5/16 9:30,,庁外公開
191,坂ノ市小学校,坂ノ市中央５－８－１,,３～４階の階段・踊り場・通路,,,0,津波避難ビル,200546,26134.74502,70485.75704,承認済み,2017/5/16 9:30,,庁外公開
192,佐賀関中学校,佐賀関２－１１２－２,北,３～４階の階段・踊り場・通路,,,0,津波避難ビル,200547,28002.17864,80444.56588,承認済み,2017/5/16 9:30,,庁外公開
192,佐賀関中学校,佐賀関２－１１２－２,南,３～４階の階段・踊り場・通路・屋上,,,0,津波避難ビル,200645,27958.4245,80450.81719,承認済み,2017/5/16 9:30,,庁外公開
193,佐賀関小学校,佐賀関１１０４,,１階～３階の階段・踊り場・通路,,,0,津波避難ビル,200548,27661.11746,81511.24061,承認済み,2017/5/16 9:30,,庁外公開
194,シークハイツ,庄境１－４４,,３～４階の階段・踊り場・通路,,,0,津波避難ビル,200549,26847.63925,65618.85532,承認済み,2017/5/16 9:30,,庁外公開
195,スペリオルS・２,志手３組の３,,３階部分の通路,,,0,津波避難ビル,200554,25620.50804,55156.35683,承認済み,2017/5/16 9:30,,庁外公開
196,オレンジハイム,志手３組の２,,３階部分の通路,,,0,津波避難ビル,200555,25853.63568,55006.36078,承認済み,2017/5/16 9:30,,庁外公開
197,ハイムグロワール,志手１組の２－１,,３階部分の通路,,,0,津波避難ビル,200556,25454.26158,55077.60607,承認済み,2017/5/16 9:30,,庁外公開
198,大在コーポⅢ,大在中央１丁目１４番３号,,３～８階の階段・踊り場・通路,,,0,津波避難ビル,200557,27352.19972,67051.59506,承認済み,2017/5/16 9:30,,庁外公開
199,ジュメル大道,大道町３丁目１－２４,,３～７階の階段・踊り場・通路,,,0,津波避難ビル,200558,25746.62768,55961.57924,承認済み,2017/5/16 9:30,,庁外公開
200,Ｇｒａｎｄ Ｍａｉｓｏｎ,花江川１４－１９,,３～４階の階段・踊り場・通路,,,0,津波避難ビル,200561,27203.96091,65660.39999,承認済み,2017/5/16 9:30,,庁外公開
202,中島住宅,中島中央２－４－４,２号棟,3階部分の通路,,,0,津波避難ビル,200562,27316.73672,57167.17523,承認済み,2017/5/16 9:30,,庁外公開
203,中島住宅,中島中央２－４－１,３号棟,3階部分の通路,,,0,津波避難ビル,200563,27291.11315,57165.92809,承認済み,2017/5/16 9:30,,庁外公開
204,碩田ハイツ,碩田町２丁目２番２７号,,３～６階の階段・踊り場・通路,,,0,津波避難ビル,200564,27492.78473,57090.7858,承認済み,2017/5/16 9:30,,庁外公開
205,大分県庁舎,大手町３丁目１番１号,新館,３階～７階までの廊下・東側非常階段,,,0,津波避難ビル,200565,26662.19478,57076.94807,承認済み,2017/5/16 9:30,,庁外公開
206,大分県庁舎,府内町３丁目１０番１号,別館,３階～９階までの廊下・東側及び西側非常階段,,,0,津波避難ビル,200566,26592.19754,56970.69423,承認済み,2017/5/16 9:30,,庁外公開
207,サンライズ三川,三川上４丁目３－３６,,３～４階の階段、踊り場、通路部分,,,0,津波避難ビル,200487,27487.54647,62574.30054,承認済み,2017/5/16 9:30,,庁外公開
207,サンシティ顕徳,顕徳町１－６－１,,３～５階の階段・踊り場・通路,,,0,津波避難ビル,200567,25823.62762,57097.70172,承認済み,2017/5/16 9:30,,庁外公開
208,セゾン駅南,大道町２－７－１２,,３～５階の階段・踊り場・通路,,,0,津波避難ビル,200568,25807.36511,56047.85437,承認済み,2017/5/16 9:30,,庁外公開
209,ユーゲントハイム,南鶴崎3-2-12,,３階の踊り場・通路,,,0,津波避難ビル,200569,26730.70013,64656.56694,承認済み,2017/5/16 9:30,,庁外公開
210,シティライフ中島,中島中央三丁目３－２９,,３～８階の階段・踊り場・通路,,,0,津波避難ビル,200571,27411.19336,57070.70891,承認済み,2017/5/16 9:30,,庁外公開
211,マスターズ,中島西１－６－３,,３～５階の階段・踊り場・通路,,,0,津波避難ビル,200572,27140.98291,56747.9416,承認済み,2017/5/16 9:30,,庁外公開
212,ドゥペールワコー大道,大道町３丁目２－７,,３～１２階の階段・踊り場・通路,,,0,津波避難ビル,200573,25623.39678,55947.10736,承認済み,2017/5/16 9:30,,庁外公開
213,アルファー中島,中島中央３丁目２番２１号,,３階部分の通路,,,0,津波避難ビル,200574,27394.24596,57286.67187,承認済み,2017/5/16 9:30,,庁外公開
214,メルクマール中島,中島中央２丁目４番３８号,,３階部分の通路,,,0,津波避難ビル,200575,27306.31702,57231.87687,承認済み,2017/5/16 9:30,,庁外公開
215,芦刈司法ビル,中島西一丁目１番２８号,,３～４階の階段・踊り場・通路,,,0,津波避難ビル,200576,27045.12406,56728.4476,承認済み,2017/5/16 9:30,,庁外公開
216,中島ビル,中島西一丁目１番２４号,,３～６階の階段・踊り場・通路,,,0,津波避難ビル,200577,27065.35225,56728.69308,承認済み,2017/5/16 9:30,,庁外公開
217,コーポ青空,錦町１－１２－２,,３階部分の通路,,,0,津波避難ビル,200578,26150.3273,57758.0787,承認済み,2017/5/16 9:30,,庁外公開
218,パークサイドハイツ　カワベ,西新地２－６－３３,,３～６階の階段・踊り場・通路,,,0,津波避難ビル,200579,28216.71118,58244.79161,承認済み,2017/5/16 9:30,,庁外公開
219,ルネ中島,中島西３－３－１,,３～５階の階段・踊り場・通路,,,0,津波避難ビル,200580,27312.25448,56806.20577,承認済み,2017/5/16 9:30,,庁外公開
220,スターダスト中島,中島西３－３－１７,,３～７階の階段・踊り場・通路,,,0,津波避難ビル,200581,27321.68707,56839.4256,承認済み,2017/5/16 9:30,,庁外公開
222,サーパス新川,新川町１丁目１０番４３号,,３～１０階の階段・踊り場・通路,,,0,津波避難ビル,200594,27793.08659,56806.25883,承認済み,2017/5/16 9:30,,庁外公開
224,顕徳中央ビル,顕徳町２丁目２番３８号,,３階～５階の階段・踊り場・通路,,,0,津波避難ビル,200595,25770.47422,57267.13922,承認済み,2017/5/16 9:30,,庁外公開
225,ナイスモア中島,中島西３丁目７番９号,,３階～１１階の階段・踊り場・通路,,,0,津波避難ビル,200596,27402.78055,56816.37431,承認済み,2017/5/16 9:30,,庁外公開
226,栄コーポⅠ,東浜２丁目５番２号,,３階～４階の階段・踊り場・通路,,,0,津波避難ビル,200597,27641.81833,58975.49054,承認済み,2017/5/16 9:30,,庁外公開
227,サニービル中島,中島中央１丁目１番１０号,,３階～５階の階段・踊り場・通路,,,0,津波避難ビル,200598,27113.81489,57067.37503,承認済み,2017/5/16 9:30,,庁外公開
228,リベルはぎわら,萩原３丁目６番７号,,３階～４階の階段・踊り場・通路,,,0,津波避難ビル,200599,27412.18354,59788.0927,承認済み,2017/5/16 9:30,,庁外公開
229,開世第３ビル,中津留２丁目９番６号,,３階～６階の階段・踊り場・通路,,,0,津波避難ビル,200602,27399.59776,58697.04266,承認済み,2017/5/16 9:30,,庁外公開
230,サンハイツ鶴崎,北鶴崎１丁目６番２６号,,３階～１０階の階段・踊り場・通路,,,0,津波避難ビル,200603,27020.25653,64342.96037,承認済み,2017/5/16 9:30,,庁外公開
231,ビューハイム勢家,勢家町２丁目１番２３号,,３階部分の通路,,,0,津波避難ビル,200604,27305.89883,56032.64515,承認済み,2017/5/16 9:30,,庁外公開
232,佐藤ビル,寺崎町１丁目９番１２号,,３階部分の通路,,,0,津波避難ビル,200605,27500.1581,61983.90255,承認済み,2017/5/16 9:30,,庁外公開
233,S・BLD,花津留２丁目４番３号,,３階～４階の階段・踊り場・通路,,,0,津波避難ビル,200606,27139.52398,59024.76727,承認済み,2017/5/16 9:30,,庁外公開
235,エクセレント・ラック,顕徳町三丁目３番２４号,,３階～８階の階段・踊り場・通路,,,0,津波避難ビル,200608,25833.41453,57640.1972,承認済み,2017/5/16 9:30,,庁外公開
236,ケアマンションはなぞの,花江川４－２８,,３階～６階の階段・踊り場・通路・屋上・食堂,,,0,津波避難ビル,200609,27492.02225,65969.49704,承認済み,2017/5/16 9:30,,庁外公開
237,リベラル大洲,西新地１丁目１番３８号,,３階～１１階の階段・踊り場・通路,,,0,津波避難ビル,200610,28003.75464,57929.29898,承認済み,2017/5/16 9:30,,庁外公開
238,市営畑中第２住宅,大字畑中３０３番地の４,２Ａ１,３階～５階の階段・踊り場・通路,,,0,津波避難ビル,200614,22666.59862,55160.33027,承認済み,2017/5/16 9:30,,庁外公開
238,市営畑中第２住宅,大字畑中３０３番地の４,１Ａ１,３階～５階の階段・踊り場・通路,,,0,津波避難ビル,200615,22702.85214,55168.45041,承認済み,2017/5/16 9:30,,庁外公開
238,市営畑中第２住宅,大字畑中３０３番地の４,１Ａ２,３階～５階の階段・踊り場・通路,,,0,津波避難ビル,200616,22634.09005,55149.69973,承認済み,2017/5/16 9:30,,庁外公開
239,西ノ洲環境株式会社　本社ビル,向原沖１丁目１番６３号,,３階部分の大会議室、ホール、屋上庭園、Ｒ階屋上,,,0,津波避難ビル,200611,28443.69468,61577.99363,承認済み,2017/5/16 9:30,,庁外公開
240,朝日プラザ中島中央,中島中央一丁目１番１２号,,３階～８階の階段・踊り場・通路,,,0,津波避難ビル,200612,27115.41752,57089.11477,承認済み,2017/5/16 9:30,,庁外公開
241,ＮＫＪビル,花津留１丁目８番８号,,３階～４階の階段・踊り場・通路,,,0,津波避難ビル,200613,27258.60326,58828.83489,承認済み,2017/5/16 9:30,,庁外公開
242,原川中学校,寺崎町１丁目１０番１号,北,３階～４階の階段・踊り場・通路,,,0,津波避難ビル,200620,27610.50602,61936.51606,承認済み,2017/5/16 9:30,,庁外公開
242,原川中学校,寺崎町１丁目１０番１号,南,３階～４階の階段・踊り場・通路,,,0,津波避難ビル,200621,27578.00588,61950.88645,承認済み,2017/5/16 9:30,,庁外公開
244,小佐井小学校,小佐井３－１－８,,２階部分の通路、屋上,,,0,津波避難ビル,200624,25120.40028,69610.2012,承認済み,2017/5/16 9:30,,庁外公開
245,三佐小学校,三佐５丁目６番８号,,３階部分の通路、屋上,,,0,津波避難ビル,200625,28256.96017,63446.86573,承認済み,2017/5/16 9:30,,庁外公開
246,コスモシティ皆春,大字皆春１０８番地の２,,３階～１１階の階段・踊り場・通路,,,0,津波避難ビル,200626,26712.72498,62922.67228,承認済み,2017/5/16 9:30,,庁外公開
247,大分県立爽風館高等学校,上野丘１丁目１１番１４号,教室棟,教室棟内廊下及び学校敷地,,,0,津波避難ビル,200627,25119.19754,56915.97088,承認済み,2017/5/16 9:30,,庁外公開
247,大分県立爽風館高等学校,上野丘１丁目１１番１４号,体育館棟,体育館棟内廊下及び学校敷地,,,0,津波避難ビル,200628,25051.69556,56877.84552,承認済み,2017/5/16 9:30,,庁外公開
248,NTT長浜第一ビル,長浜町３丁目１５番１０号,,屋上,,,0,津波避難ビル,200629,26651.09603,57714.21948,承認済み,2017/5/16 9:30,,庁外公開
249,NTT鶴崎ビル,中鶴崎１丁目１番６号,,屋上,,,0,津波避難ビル,200630,27013.39044,64153.55387,承認済み,2017/5/16 9:30,,庁外公開
250,レジオン大洲,西新地２－３－３０,,３階～１３階の階段・踊り場・通路,,,0,津波避難ビル,200631,28101.81445,58381.49645,承認済み,2017/5/16 9:30,,庁外公開
251,レジオン中春日,中春日町１２－２７,,３階～１５階の階段・踊り場・通路,,,0,津波避難ビル,200632,26749.04988,55516.39755,承認済み,2017/5/16 9:30,,庁外公開
252,エバーライフ中島,中島中央１－２－４７,,３階～１１階の階段・踊り場・通路,,,0,津波避難ビル,200646,27089.67649,57199.83828,承認済み,2017/5/16 9:30,,庁外公開
255,サンモール南,萩原１丁目２番１号,,３階～９階の階段・踊り場・通路,,,0,津波避難ビル,200647,27187.81539,59356.93414,承認済み,2017/5/16 9:30,,庁外公開
256,第二南ビル,萩原１丁目２番４７号,,３階～６階の階段・踊り場・通路,,,0,津波避難ビル,200648,27221.7261,59401.92077,承認済み,2017/5/16 9:30,,庁外公開
257,レジオン南鶴崎,南鶴崎２丁目２番１７号,,３階～１４階の階段・踊り場・通路,,,0,津波避難ビル,200649,26808.64616,64401.27438,承認済み,2017/5/16 9:30,,庁外公開
259,メディトピアこが,南鶴崎２丁目６番２２号,,３階～４階部分の外階段・踊り場・屋上,,,0,津波避難ビル,200650,26711.75803,64342.88041,承認済み,2017/5/16 9:30,,庁外公開
260,富国パルメゾン皆春,皆春２６５－６,,３階～１０階の階段・踊り場・通路,,,0,津波避難ビル,200651,26476.1102,63018.17949,承認済み,2017/5/16 9:30,,庁外公開
261,サンコーポ,南鶴崎２丁目５番２８号,,３階部分の通路,,,0,津波避難ビル,200652,26741.26367,64215.1995,承認済み,2017/5/16 9:30,,庁外公開
262,ライフハイツ,鶴崎４９６,,３階部分の通路,,,0,津波避難ビル,200653,26435.08932,64608.47181,承認済み,2017/5/16 9:30,,庁外公開
263,ユーミー葵,三佐１丁目５－１１,,３階部分の通路,,,0,津波避難ビル,200654,28242.15717,63237.17909,承認済み,2017/5/16 9:30,,庁外公開
264,ドエル小中島,徳島２丁目２番７号,,３階～４階の階段・踊り場・通路,,,0,津波避難ビル,200655,27277.76563,64766.15324,承認済み,2017/5/16 9:30,,庁外公開
265,ウィンダム三佐,三佐５丁目３番８号,,３階部分の通路,,,0,津波避難ビル,200656,28268.04543,63581.2817,承認済み,2017/5/16 9:30,,庁外公開
266,シャトー・ラ・メールⅡ,汐見1丁目３番３１号,,３階～５階の階段・踊り場・通路,,,0,津波避難ビル,200664,27684.98713,67881.03358,承認済み,2017/5/16 9:30,,庁外公開
267,シャトー・ラ・メール,汐見1丁目２番３１号,,３階～５階の階段・踊り場・通路,,,0,津波避難ビル,200666,27615.66538,67877.78169,承認済み,2017/5/16 9:30,,庁外公開
268,サンバディ1117,仲西町1丁目８－３,,３階部分の通路,,,0,津波避難ビル,200667,27145.42936,61882.87135,承認済み,2017/5/16 9:30,,庁外公開
269,三和コーポ　No.33,高松東３－５－２,,３階～５階の階段・踊り場・通路,,,0,津波避難ビル,200668,27679.80854,61712.07302,承認済み,2017/5/16 9:30,,庁外公開
270,プランドール小中島,徳島１丁目５番１５号,,３階～４階の階段・踊り場・通路,,,0,津波避難ビル,200669,27244.0407,64701.09198,承認済み,2017/5/16 9:30,,庁外公開
271,コーポカワネ,三佐２丁目６番２４号,,３階部分の通路,,,0,津波避難ビル,200670,27750.95911,62921.38456,承認済み,2017/5/16 9:30,,庁外公開
272,ミネルバ鶴崎,西鶴崎１丁目１番７号,,３階～１１階の階段・踊り場・通路,,,0,津波避難ビル,200671,27077.47406,63995.41944,承認済み,2017/5/16 9:30,,庁外公開
273,グリーンヒル金池町,金池町三丁目３番９号,,３階～１５階の階段・踊り場・通路,,,0,津波避難ビル,200672,26133.45234,57229.39739,承認済み,2017/5/16 9:30,,庁外公開
274,スタジアムサイド大洲浜,大州浜一丁目５－５,,３階～１０階の階段・踊り場・通路,,,0,津波避難ビル,200673,28052.96243,58645.68057,承認済み,2017/5/16 9:30,,庁外公開
275,フローレンス猪原,松原町１丁目３番１１号,,３階～４階の階段・踊り場・通路,,,0,津波避難ビル,200674,27672.72644,61202.2733,承認済み,2017/5/16 9:30,,庁外公開
276,グリーンヒル中島中央,中島中央１丁目２番４１号,,３階～１３階の階段・踊り場・通路,,,0,津波避難ビル,200678,27092.18057,57254.06611,承認済み,2017/5/16 9:30,,庁外公開
277,ウィンダム姫野　A棟,竹下１丁目９－５０,,３階部分の通路,,,0,津波避難ビル,200679,27144.80355,67805.17357,承認済み,2017/5/16 9:30,,庁外公開
278,ウィンダム姫野　B棟,竹下１丁目９－４９,,３階部分の通路,,,0,津波避難ビル,200680,27124.33853,67796.55701,承認済み,2017/5/16 9:30,,庁外公開
279,ウィンダムはさま,竹下１丁目５－１３,,３階部分の通路,,,0,津波避難ビル,200677,27108.09271,67725.13176,承認済み,2017/5/16 9:30,,庁外公開
280,中西ビル,萩原１丁目１－２６,,３階～４階の階段・踊り場・通路,,,0,津波避難ビル,200681,27078.02208,59359.74811,承認済み,2017/5/16 9:30,,庁外公開
281,メゾン宇和島,花津留２－１５－１７,,３階～４階の階段・踊り場・通路,,,0,津波避難ビル,200682,27382.66832,59212.98976,承認済み,2017/5/16 9:30,,庁外公開
282,コスモシティ乙津,大字乙津２－２,,３階～１０階の階段・踊り場・通路,,,0,津波避難ビル,200683,26621.14018,63592.80982,承認済み,2017/5/16 9:30,,庁外公開
283,第１五興ビル,中津留１丁目４番２１号,,３階～４階の階段・踊り場・通路,,,0,津波避難ビル,200709,27191.71712,58587.52168,承認済み,2017/5/16 9:30,,庁外公開
284,ヤマトビル,三佐５丁目２番２７号,,３階部分の通路,,,0,津波避難ビル,200710,28312.94678,63652.03309,承認済み,2017/5/16 9:30,,庁外公開
285,ヴェルディ乙津,大字乙津１６番地の１,,３階～８階の階段・踊り場・通路,,,0,津波避難ビル,200711,26616.49995,63524.57721,承認済み,2017/5/16 9:30,,庁外公開
286,アーバンパレス高城,日岡３丁目２番４号,,３階～５階の階段・踊り場・通路,,,0,津波避難ビル,200712,28027.41861,61368.1554,承認済み,2017/5/16 9:30,,庁外公開
287,エレガンス宮本Ⅲ,花江川１２－２８,,３階～４階の階段・踊り場・通路,,,0,津波避難ビル,200713,27241.60133,65767.30949,承認済み,2017/5/16 9:30,,庁外公開
288,ウィンダム竹下,竹下２丁目６番８号,,３階部分の通路,,,0,津波避難ビル,200714,26992.56988,68177.85614,承認済み,2017/5/16 9:30,,庁外公開
289,ボスコ乙津Ⅰ,三川上１丁目４番１８号,,３階部分の通路,,,0,津波避難ビル,200715,27232.92013,63079.22985,承認済み,2017/5/16 9:30,,庁外公開
290,ボスコ乙津Ⅱ,三川上１丁目４番１０号,,３階～４階の階段・踊り場・通路,,,0,津波避難ビル,200716,27248.25846,63082.87633,承認済み,2017/5/16 9:30,,庁外公開
291,グリーンヒル西春日,西春日町８番２３号,,３階～８階の階段・踊り場・通路,,,0,津波避難ビル,200717,26949.41777,55463.38729,承認済み,2017/5/16 9:30,,庁外公開
292,プレシャス２１,金池町４丁目５－１７,,３階～１０階の階段・踊り場・通路,,,0,津波避難ビル,200718,26069.21675,57277.41716,承認済み,2017/5/16 9:30,,庁外公開
293,メディパレス大分,萩原１丁目１４－６,,３階～４階の階段・踊り場・通路,,,0,津波避難ビル,200719,27333.15469,59672.47383,承認済み,2017/5/16 9:30,,庁外公開
294,豊饒県職員住宅,豊饒１１組,A棟,３階以上の階段・踊り場・通路,,,0,津波避難ビル,200720,23344.49099,55793.90629,承認済み,2017/5/16 9:30,,庁外公開
294,豊饒県職員住宅,豊饒１１組,B棟,３階以上の階段・踊り場・通路,,,0,津波避難ビル,200721,23304.48846,55791.40404,承認済み,2017/5/16 9:30,,庁外公開
295,マンションおの,西大道４－３－６２,,３階～４階の階段・踊り場・通路,,,0,津波避難ビル,200722,25434.17321,55239.48484,承認済み,2017/5/16 9:30,,庁外公開
296,サンコーポ高見,西大道２－５－２０,,３階～４階の階段・踊り場・通路,,,0,津波避難ビル,200723,25564.29725,55336.52814,承認済み,2017/5/16 9:30,,庁外公開
297,ホルトホール大分,金池南一丁目５番１号,,３階部分の大ホール、ホワイエ,,,0,津波避難ビル,200725,25752.08578,56480.34167,承認済み,2017/5/16 9:30,,庁外公開
298,城崎アヴェニュー,城崎町２丁目４番３０号,,3階～9階の階段・踊り場・通路,,,0,津波避難ビル,200726,26903.66658,57243.43432,承認済み,2017/5/16 9:30,,庁外公開
299,メゾン逢春,大在北１－３－１７,,３階部分の通路,,,0,津波避難ビル,200727,28131.78068,65998.92127,承認済み,2017/5/16 9:30,,庁外公開
300,逢春コーポⅡ、Ⅲ,大在北1-7-35,,３階部分の通路,,,0,津波避難ビル,200728,27938.35662,66072.36825,承認済み,2017/5/16 9:30,,庁外公開
300,逢春コーポⅡ、Ⅲ,大在北1-7-35,,３階部分の通路,,,0,津波避難ビル,200729,27942.1019,66097.99504,承認済み,2017/5/16 9:30,,庁外公開
301,大分東部病院,大字志村765番地,,1階のロビー・通路部分,,,0,津波避難ビル,200730,26824.14143,65758.44665,承認済み,2017/5/16 9:30,,庁外公開
302,サニーパレス北横田,大在北2-1,,３階～４階の階段・踊り場・通路,,,0,津波避難ビル,200731,27811.17583,66558.55138,承認済み,2017/5/16 9:30,,庁外公開
303,アドバンス山津,山津町２丁目１－６,,３階～７階の階段・踊り場・通路,,,0,津波避難ビル,200732,27169.11579,62277.03529,承認済み,2017/5/16 9:30,,庁外公開
304,弘麗牧マンション,牧上町6-5,,３階～６階の階段・踊り場・通路,,,0,津波避難ビル,200733,26564.5949,59630.50604,承認済み,2017/5/16 9:30,,庁外公開
305,グランデⅡ,花津留1-9-23,,３階部分の通路,,,0,津波避難ビル,200734,27303.60407,58898.26296,承認済み,2017/5/16 9:30,,庁外公開
306,スペースファイブ,大字勢家1053番地1,,３階～５階の階段・踊り場・通路・屋上,,,0,津波避難ビル,200735,27496.30886,56119.83546,承認済み,2017/5/16 9:30,,庁外公開
307,西大分ビル,生石2-1-27,,３階～４階の階段・踊り場・通路,,,0,津波避難ビル,200736,27285.12351,54487.84449,承認済み,2017/5/16 9:30,,庁外公開
308,春日町小学校,西春日町1-48,南東,3階の通路,,,0,津波避難ビル,200737,26835.87132,55678.53787,承認済み,2017/5/16 9:30,,庁外公開
308,春日町小学校,西春日町1-48,北,３～４階の階段・踊り場・通路・屋上,,,0,津波避難ビル,200738,26864.62589,55653.53945,承認済み,2017/5/16 9:30,,庁外公開
308,春日町小学校,西春日町1-48,南西,３階の通路,,,0,津波避難ビル,200876,26835.24357,55623.54358,承認済み,2017/5/16 9:30,,庁外公開
309,滝尾小学校,羽田515番地の1,南,３階部分の通路,,,0,津波避難ビル,200739,23874.62996,59015.18448,承認済み,2017/5/16 9:30,,庁外公開
309,滝尾小学校,羽田515番地の1,中,３階部分の通路,,,0,津波避難ビル,200740,23897.74905,59077.06046,承認済み,2017/5/16 9:30,,庁外公開
309,滝尾小学校,羽田515番地の1,北,３階部分の通路,,,0,津波避難ビル,200741,23926.50196,59071.44162,承認済み,2017/5/16 9:30,,庁外公開
310,サニーコーポアゼツ,竹下1丁目2-24,,３階～４階の階段・踊り場・通路,,,0,津波避難ビル,200742,27081.81049,67615.38362,承認済み,2017/5/16 9:30,,庁外公開
311,ダンハイツ大在,大在北4丁目8番27号,,３階部分の通路,,,0,津波避難ビル,200743,28383.38631,66723.11148,承認済み,2017/5/16 9:30,,庁外公開
312,パルテール花高松,花高松3-4-15,,３階～４階の階段・踊り場・通路,,,0,津波避難ビル,200744,28097.97863,61824.9171,承認済み,2017/5/16 9:30,,庁外公開
313,東浜コーポ,東浜1-3-16,,３階～６階の階段・踊り場・通路,,,0,津波避難ビル,200745,27627.05228,58711.08115,承認済み,2017/5/16 9:30,,庁外公開
314,ハイツ岡,萩原1丁目7-43,,３階～４階の階段・踊り場・通路,,,0,津波避難ビル,200746,27053.72251,59437.30511,承認済み,2017/5/16 9:30,,庁外公開
315,大洲総合運動公園硬式野球場,青葉町1番地,,硬式野球場内野席上段,,,0,津波避難ビル,200749,28028.24151,58472.69118,承認済み,2017/5/16 9:30,,庁外公開
316,フロイデつる,東津留一丁目3-5,,３階～５階の階段・踊り場・通路,,,0,津波避難ビル,200750,26799.29848,58662.39662,承認済み,2017/5/16 9:30,,庁外公開
317,第2丸大ビル,浜の市1-3-6,,３階～４階の階段・踊り場・通路,,,0,津波避難ビル,200751,27452.25755,54298.39671,承認済み,2017/5/16 9:30,,庁外公開
318,フラワーレジデンス,大在北3-10-26,,３階～４階の階段・踊り場・通路,,,0,津波避難ビル,200752,28418.78868,66238.09446,承認済み,2017/5/16 9:30,,庁外公開
319,グリーンヒル城崎弐番館,城崎町２丁目５－１６,,３階～１４階の階段・踊り場・通路,,,0,津波避難ビル,200753,26988.21577,57272.42058,承認済み,2017/5/16 9:30,,庁外公開
320,アルファステイツ大分駅南,金池南２丁目10番12号,,３階～１３階の階段・踊り場・通路,,,0,津波避難ビル,200754,25461.90814,56875.43249,承認済み,2017/5/16 9:30,,庁外公開
321,コーポキタデ,中津留１丁目５番１４号,,３階部分の通路,,,0,津波避難ビル,200755,27246.10312,58694.5872,承認済み,2017/5/16 9:30,,庁外公開
322,植木ビルハイツ,萩原１丁目６－７,,３階～４階の階段・踊り場・通路,,,0,津波避難ビル,200756,27130.55751,59494.21779,承認済み,2017/5/16 9:30,,庁外公開
323,第二九信ビル,大津町３丁目４番３号,,３階～４階の階段・踊り場・通路,,,0,津波避難ビル,200757,27765.08778,58630.94364,承認済み,2017/5/16 9:30,,庁外公開
325,ユーミーソルフレイア,竹下一丁目４－２３,,３階部分の通路,,,0,津波避難ビル,200759,27195.26098,67679.62738,承認済み,2017/5/16 9:30,,庁外公開
326,下郡小学校,下郡北3-17-23,北,３階部分の通路,,,0,津波避難ビル,200760,25534.14911,59083.71442,承認済み,2017/5/16 9:30,,庁外公開
326,下郡小学校,下郡北3-17-23,南,３階部分の通路,,,0,津波避難ビル,200761,25499.1279,59074.42112,承認済み,2017/5/16 9:30,,庁外公開
327,三和コーポ　No.22,古国府東9組の3,,３階～７階の階段・踊り場・通路,,,0,津波避難ビル,200762,24318.70957,57129.67014,承認済み,2017/5/16 9:30,,庁外公開
328,三和コーポ　No.21,古国府東9組の2,,３階～４階の階段・踊り場・通路,,,0,津波避難ビル,200763,24343.08893,57196.54533,承認済み,2017/5/16 9:30,,庁外公開
329,スカイコート21,大在北3丁目9-13,,３階～４階の階段・踊り場・通路,,,0,津波避難ビル,200764,28367.27168,66238.80926,承認済み,2017/5/16 9:30,,庁外公開
330,アムール大在,大在北1丁目16-37,,３階部分の通路,,,0,津波避難ビル,200765,27964.06766,66438.70953,承認済み,2017/5/16 9:30,,庁外公開
331,桃園小学校,山津町2丁目7番1号,本,３階,,,0,津波避難ビル,200766,26980.35802,62324.59499,承認済み,2017/5/16 9:30,,庁外公開
331,桃園小学校,山津町2丁目7番1号,西,３階部分の通路,,,0,津波避難ビル,200767,26965.98107,62255.21759,承認済み,2017/5/16 9:30,,庁外公開
332,NEXTAGE,花江川１２－２6,,３階～４階の階段・踊り場・通路,,,0,津波避難ビル,200768,27255.71701,65754.0092,承認済み,2017/5/16 9:30,,庁外公開
333,大分市教育センター,大分市碩田町３丁目５番１１号,,"３階～４階の階段・踊り場・通路,4F大会議室、屋上",,,0,津波避難ビル,200777,27677.57906,57132.51671,承認済み,2017/5/16 9:30,,庁外公開
334,サンハイツ大手町,大手町2丁目3番34号,,３階～８階の階段・踊り場・通路,,,0,津波避難ビル,200778,26395.31076,57179.16058,承認済み,2017/5/16 9:30,,庁外公開
335,アーバンブレーム西春日,西春日町1番4号,,３階～９階の踊り場・通路,,,0,津波避難ビル,200779,26726.2982,55670.95555,承認済み,2017/5/16 9:30,,庁外公開
336,アーバンブレーム大手町,大手町1丁目1番23号,,３階～９階の階段・踊り場・通路,,,0,津波避難ビル,200780,26282.698,57196.18878,承認済み,2017/5/16 9:30,,庁外公開
337,ヴィラ安東,竹下２丁目8番27号,,３階部分の通路,,,0,津波避難ビル,200781,26860.22316,68456.34578,承認済み,2017/5/16 9:30,,庁外公開
338,せきの郷,大字一尺屋2357番地の1,,３階部分の通路,,,0,津波避難ビル,200782,22675.15802,79927.82705,承認済み,2017/5/16 9:30,,庁外公開
340,ジョイ86,萩原4丁目７番3号,,３階～５階の階段・踊り場・通路,,,0,津波避難ビル,200788,27645.46154,59749.26552,承認済み,2017/5/16 9:30,,庁外公開
341,ウィンダム鶴崎,大字鶴崎５１２番地,,３階の踊り場、通路部分,,,0,津波避難ビル,200582,26361.96806,64607.15951,承認済み,2017/5/16 9:30,,庁外公開
341,三和コーポ　No.23,古国府東9組の5,,３階～１１階の階段・踊り場・通路,,,0,津波避難ビル,200789,24378.1104,57162.95115,承認済み,2017/5/16 9:30,,庁外公開
342,三和コーポ　No.24,古国府東9組の6,,３階～１１階の階段・踊り場・通路,,,0,津波避難ビル,200790,24363.10496,57106.07846,承認済み,2017/5/16 9:30,,庁外公開
343,グリーンメゾン鶴羽,東津留二丁目17番22号,,３階～９階の階段・踊り場・通路,,,0,津波避難ビル,200855,27003.17667,59137.94924,承認済み,2017/5/16 9:30,,庁外公開
344,レジオン萩原,萩原4丁目７番40号,,３階～１０階の階段・踊り場・通路,,,0,津波避難ビル,200856,27650.32794,59818.98022,承認済み,2017/5/16 9:30,,庁外公開
345,ドゥペール萩原弐番館,萩原4丁目７番36号,,３階～９階の階段・踊り場・通路,,,0,津波避難ビル,200857,27654.45743,59859.11503,承認済み,2017/5/16 9:30,,庁外公開
346,ウィンダム・スガ,三佐５丁目２－７,,３～４階の階段、踊り場、通路部分,,,0,津波避難ビル,200559,28393.20202,63566.02956,承認済み,2017/5/16 9:30,,庁外公開
346,有料老人ホーム　椋の樹,大字角子原字花田870番地,,３階部分の食堂・通路・デッキ・踊り場,,,0,津波避難ビル,200874,27413.20333,66438.70976,承認済み,2017/5/16 9:30,,庁外公開
347,ソレイユガーデン,中島西二丁目２－１５,,３階～４階の階段・踊り場・通路,,,0,津波避難ビル,200875,27238.82482,56846.35784,承認済み,2017/5/16 9:30,,庁外公開
348,長浜小学校,長浜町二丁目６番３２号,西,屋上,,,0,津波避難ビル,200877,26412.87879,57522.0566,承認済み,2017/5/16 9:30,,庁外公開
348,長浜小学校,長浜町二丁目６番３２号,東,3階の通路,,,0,津波避難ビル,200878,26415.37019,57592.68079,承認済み,2017/5/16 9:30,,庁外公開
349,舞鶴小学校,西浜2-1,北,３階部分の通路,,,0,津波避難ビル,200879,27566.45478,58311.08114,承認済み,2017/5/16 9:30,,庁外公開
349,舞鶴小学校,西浜2-1,南,３階以上の階段、通路、踊場、屋上,,,0,津波避難ビル,200880,27535.82845,58302.32886,承認済み,2017/5/16 9:30,,庁外公開
350,日岡小学校,日岡二丁目2-1,北,３階部分の通路,,,0,津波避難ビル,200881,27898.7361,61340.59582,承認済み,2017/5/16 9:30,,庁外公開
350,日岡小学校,日岡二丁目2-1,西,３階部分の通路,,,0,津波避難ビル,200882,27833.09899,61313.09431,承認済み,2017/5/16 9:30,,庁外公開
350,日岡小学校,日岡二丁目2-1,南,３階部分の通路,,,0,津波避難ビル,200883,27871.85085,61357.47203,承認済み,2017/5/16 9:30,,庁外公開
351,鶴崎小学校,南鶴崎三丁目3番１号,北,３階以上の階段・踊り場・通路、屋上,,,0,津波避難ビル,200884,26740.36064,64498.5809,承認済み,2017/5/16 9:30,,庁外公開
351,鶴崎小学校,南鶴崎三丁目3番１号,南,３階以上の階段・踊り場・通路,,,0,津波避難ビル,200885,26720.3595,64479.20885,承認済み,2017/5/16 9:30,,庁外公開
352,別保小学校,森町963番地の1,管理,３～４階の階段・踊り場・通路,,,0,津波避難ビル,200886,25427.00575,63842.58002,承認済み,2017/5/16 9:30,,庁外公開
352,別保小学校,森町963番地の1,西,3階の通路,,,0,津波避難ビル,200887,25447.62815,63766.33604,承認済み,2017/5/16 9:30,,庁外公開
352,別保小学校,森町963番地の1,南,３階の通路,,,0,津波避難ビル,200888,25418.25381,63768.20667,承認済み,2017/5/16 9:30,,庁外公開
353,坂ノ市中学校,坂ノ市南二丁目9-72,北,３階以上の階段、通路、踊り場、屋上,,,0,津波避難ビル,200889,25650.51109,69923.53763,承認済み,2017/5/16 9:30,,庁外公開
353,坂ノ市中学校,坂ノ市南二丁目9-72,南,３階以上の階段・踊り場・通路,,,0,津波避難ビル,200890,25611.75859,69910.4143,承認済み,2017/5/16 9:30,,庁外公開
354,王子中学校,南春日6-1,北,３階以上の階段・踊り場・通路、屋上,,,0,津波避難ビル,200891,26453.94012,55410.31904,承認済み,2017/5/16 9:30,,庁外公開
354,王子中学校,南春日6-1,南,３階以上の階段・踊り場・通路、屋上,,,0,津波避難ビル,200892,26394.56247,55442.19267,承認済み,2017/5/16 9:30,,庁外公開
354,王子中学校,南春日6-1,西,3階の通路,,,0,津波避難ビル,200893,26394.56242,55376.56882,承認済み,2017/5/16 9:30,,庁外公開
355,滝尾中学校,羽田349番地,西,3階以上の階段・踊り場・通路・屋上,,,0,津波避難ビル,200894,24055.76359,59017.97932,承認済み,2017/5/16 9:30,,庁外公開
355,滝尾中学校,羽田349番地,北西,３階以上の階段・踊り場・通路,,,0,津波避難ビル,200895,24033.88167,59068.60674,承認済み,2017/5/16 9:30,,庁外公開
355,滝尾中学校,羽田349番地,北東,３階以上の階段・踊り場・通路,,,0,津波避難ビル,200896,24015.13811,59095.4828,承認済み,2017/5/16 9:30,,庁外公開
355,滝尾中学校,羽田349番地,中西,３階以上の階段・踊り場・通路,,,0,津波避難ビル,200897,24010.76955,59051.7264,承認済み,2017/5/16 9:30,,庁外公開
355,滝尾中学校,羽田349番地,中東,３階以上の階段・踊り場・通路,,,0,津波避難ビル,200898,23997.0169,59084.23025,承認済み,2017/5/16 9:30,,庁外公開
355,滝尾中学校,羽田349番地,南,３階以上の階段・踊り場・通路,,,0,津波避難ビル,200899,23976.39045,59054.85324,承認済み,2017/5/16 9:30,,庁外公開
356,市営佐賀関H25住宅,大字佐賀関字上浦2331番1,,1～5階の階段・踊り場・通路・屋上,,,0,津波避難ビル,200930,27881.12787,81729.17955,承認済み,2017/5/16 9:30,,庁外公開
357,ZEROⅡ向原,向原東一丁目1-7,,３～７階の階段・踊り場・通路,,,0,津波避難ビル,200931,28238.65782,61541.28771,承認済み,2017/5/16 9:30,,庁外公開
358,ZEROⅡ萩原,萩原一丁目1-17,,３～６階の階段・踊り場・通路,,,0,津波避難ビル,200932,27136.77746,59351.01193,承認済み,2017/5/16 9:30,,庁外公開
359,市営下郡H6住宅,下郡北二丁目129番地,,３～７階の階段・踊り場・通路,,,0,津波避難ビル,200933,25464.77155,58634.67842,承認済み,2017/5/16 9:30,,庁外公開
360,ドゥペール萩原,萩原四丁目12番11号,,３～１１階の階段・踊り場・通路,,,0,津波避難ビル,200934,27632.58711,59961.07608,承認済み,2017/5/16 9:30,,庁外公開
361,レスコ中島参番館　EAST,中島中央三丁目4-39,,３～４階の階段・踊り場・通路,,,0,津波避難ビル,200935,27420.28376,57188.90217,承認済み,2017/5/16 9:30,,庁外公開
362,レスコ中島参番館　WEST,中島中央三丁目4-40,,３～４階の階段・踊り場・通路,,,0,津波避難ビル,200936,27420.47447,57166.68671,承認済み,2017/5/16 9:30,,庁外公開
364,グランドパレス新川,大分市新川西４組の２,,３階～１５階の階段・踊り場・通路,,,0,津波避難ビル,201015,27557.43993,56522.62923,承認済み,2017/5/16 9:30,,庁外公開
365,コーポ中野,今津留二丁目2番9号,,３～４階の階段・踊り場・通路,,,0,津波避難ビル,200951,26945.21413,58289.58298,承認済み,2017/5/16 9:30,,庁外公開
366,コムフォート２１,今津留二丁目7番6号,,３～４階の階段・踊り場・通路,,,0,津波避難ビル,200952,27061.47071,58310.84001,承認済み,2017/5/16 9:30,,庁外公開
368,大在小学校,横田一丁目１５番５８号,南校舎,３～４階の階段・踊り場・通路・屋上,,,0,津波避難ビル,200953,27724.09252,67026.39168,承認済み,2017/5/16 9:30,,庁外公開
369,大在中学校,大字政所２６０２-１２,北東,1～４階の階段・踊り場・通路,,,0,津波避難ビル,200954,26216.958,67271.79727,承認済み,2017/5/16 9:30,,庁外公開
369,大在中学校,大字政所２６０２-１２,北西,1～４階の階段・踊り場・通路,,,0,津波避難ビル,200986,26185.08063,67203.66945,承認済み,2017/5/16 9:30,,庁外公開
369,大在中学校,大字政所２６０２-１２,南,1～４階の階段・踊り場・通路,,,0,津波避難ビル,200987,26176.33094,67243.67298,承認済み,2017/5/16 9:30,,庁外公開
372,ドゥペール花高松,花高松１丁目３番３０号,,３～９階の階段・踊り場,,,0,津波避難ビル,201028,27806.61845,61835.92988,承認済み,2018/1/22 14:44,2018/1/22 14:44,庁外公開
373,大分県立大分舞鶴高等学校,今津留一丁目１９番１号,管理・普通特別教室棟、特別教室棟,３階～５階の階段・踊り場・通路、屋上,,,0,津波避難ビル,201029,27276.14877,58070.51212,承認済み,2018/1/22 14:49,2018/1/22 14:53,庁外公開
373,大分県立大分舞鶴高等学校,今津留一丁目１９番１号,管理・普通特別教室棟、特別教室棟,３階～５階の階段・踊り場・通路、屋上,,,0,津波避難ビル,201029,27276.14877,58070.51212,承認済み,2018/1/22 14:49,2018/1/22 14:53,庁外公開
374,碩田学園,碩田町２丁目５番６０号,,３階～６階の階段・踊り場、オープンスペース、ランチルーム、多目的室、屋上,,,0,津波避難ビル,201017,27680.16958,56973.40882,承認済み,2017/5/16 9:30,2018/1/22 15:19,庁外公開
375,西日本プラント工業株式会社　三佐寮,大字三佐２１２２番地の５,,３～４階の階段・踊り場・通路,,,0,津波避難ビル,201030,29048.37078,63756.13931,承認済み,2018/1/22 16:14,2018/1/22 16:15,庁外公開
376,グランコムサ寺崎,寺崎町二丁目２番１５号,,３階～７階の階段・踊り場・通路,,,0,津波避難ビル,201033,27334.47568,62174.47173,承認済み,2018/3/30 8:50,2018/3/30 8:50,庁外公開
378,ブリュンヒルデ,日岡二丁目３－９,,３階～４階の階段・踊り場・通路,,,0,津波避難ビル,201034,27866.68744,61476.55234,未承認,2018/3/30 8:58,2018/3/30 8:58,庁外公開
379,(旧)中島小学校　西棟,中島西二丁目１番５２号,,３階以上の階段・踊り場・屋上,,,0,津波避難ビル,201035,27219.41667,56694.77815,承認済み,2018/3/30 9:08,2018/3/30 9:10,庁外公開
３７７－１,市営畑中５６住宅,畑中７－１１組、畑中７－１０組,,３階～４階の階段・踊り場・通路,,,0,津波避難ビル,201036,22526.32201,55880.29694,承認済み,2018/3/30 9:32,2018/3/30 9:33,庁外公開
３７７－２,市営畑中５６住宅,畑中７－１１組、畑中７－１０組,,３階～４階の階段・踊り場・通路,,,0,津波避難ビル,201037,22551.94681,55863.42239,承認済み,2018/3/30 9:34,2018/3/30 9:34,庁外公開
381,サーパス舞鶴,今津留一丁目18番15号,,３階～8階の階段・踊り場・通路,,,,,,,,,,,
234,TBレジデンス大分駅前,金池町２丁目１４番３号,,３階～９階の階段・踊り場・通路,,,0,津波避難ビル,200607,25982.31757,56971.04782,承認済み,2017/5/16 9:30,,庁外公開
